<?xml version="1.0" encoding="UTF-8"?>
<gpx version="1.1" creator="Hiroshima Kart" xmlns="http://www.topografix.com/GPX/1/1">
  <metadata><name>広島グランプリ コース</name><desc>1周 7474m</desc></metadata>
  <wpt lat="34.397897" lon="132.475191"><name>広島駅</name></wpt>
  <wpt lat="34.393176" lon="132.467385"><name>銀山町</name></wpt>
  <wpt lat="34.393991" lon="132.462523"><name>八丁堀</name></wpt>
  <wpt lat="34.395419" lon="132.457165"><name>紙屋町</name></wpt>
  <wpt lat="34.396032" lon="132.453993"><name>原爆ドーム前</name></wpt>
  <wpt lat="34.396895" lon="132.449639"><name>十日市</name></wpt>
  <wpt lat="34.401009" lon="132.448499"><name>寺町</name></wpt>
  <wpt lat="34.397198" lon="132.461008"><name>警察署前</name></wpt>
  <wpt lat="34.398584" lon="132.461414"><name>合同庁舎東</name></wpt>
  <wpt lat="34.4024" lon="132.465829"><name>白島</name></wpt>
  <wpt lat="34.401863" lon="132.472166"><name>二葉の里</name></wpt>
  <wpt lat="34.399271" lon="132.475109"><name>広島駅北口</name></wpt>
  <trk><name>広島グランプリ コース</name><trkseg>
    <trkpt lat="34.397894" lon="132.475191"/>
    <trkpt lat="34.397858" lon="132.475188"/>
    <trkpt lat="34.397822" lon="132.475185"/>
    <trkpt lat="34.397787" lon="132.475182"/>
    <trkpt lat="34.397751" lon="132.475179"/>
    <trkpt lat="34.397715" lon="132.475176"/>
    <trkpt lat="34.397679" lon="132.475174"/>
    <trkpt lat="34.397642" lon="132.47517"/>
    <trkpt lat="34.397606" lon="132.475167"/>
    <trkpt lat="34.39757" lon="132.475164"/>
    <trkpt lat="34.397534" lon="132.475161"/>
    <trkpt lat="34.397498" lon="132.475157"/>
    <trkpt lat="34.397463" lon="132.475153"/>
    <trkpt lat="34.397427" lon="132.475149"/>
    <trkpt lat="34.397391" lon="132.475143"/>
    <trkpt lat="34.397355" lon="132.475138"/>
    <trkpt lat="34.39732" lon="132.475132"/>
    <trkpt lat="34.397284" lon="132.475126"/>
    <trkpt lat="34.397249" lon="132.475119"/>
    <trkpt lat="34.397213" lon="132.475113"/>
    <trkpt lat="34.397177" lon="132.475105"/>
    <trkpt lat="34.397141" lon="132.475099"/>
    <trkpt lat="34.397106" lon="132.475091"/>
    <trkpt lat="34.39707" lon="132.475083"/>
    <trkpt lat="34.397035" lon="132.475076"/>
    <trkpt lat="34.397" lon="132.475067"/>
    <trkpt lat="34.396965" lon="132.475058"/>
    <trkpt lat="34.39693" lon="132.475047"/>
    <trkpt lat="34.396894" lon="132.475035"/>
    <trkpt lat="34.39686" lon="132.475023"/>
    <trkpt lat="34.396826" lon="132.475009"/>
    <trkpt lat="34.396793" lon="132.474994"/>
    <trkpt lat="34.396758" lon="132.474979"/>
    <trkpt lat="34.396725" lon="132.474963"/>
    <trkpt lat="34.396692" lon="132.474946"/>
    <trkpt lat="34.396658" lon="132.474929"/>
    <trkpt lat="34.396625" lon="132.474912"/>
    <trkpt lat="34.396592" lon="132.474896"/>
    <trkpt lat="34.396558" lon="132.474879"/>
    <trkpt lat="34.396525" lon="132.474862"/>
    <trkpt lat="34.396492" lon="132.474845"/>
    <trkpt lat="34.396459" lon="132.474828"/>
    <trkpt lat="34.396426" lon="132.47481"/>
    <trkpt lat="34.396393" lon="132.474793"/>
    <trkpt lat="34.396361" lon="132.474774"/>
    <trkpt lat="34.396327" lon="132.474756"/>
    <trkpt lat="34.396295" lon="132.474736"/>
    <trkpt lat="34.396263" lon="132.474718"/>
    <trkpt lat="34.396231" lon="132.474698"/>
    <trkpt lat="34.396199" lon="132.474679"/>
    <trkpt lat="34.396166" lon="132.47466"/>
    <trkpt lat="34.396134" lon="132.47464"/>
    <trkpt lat="34.396101" lon="132.474621"/>
    <trkpt lat="34.396069" lon="132.474601"/>
    <trkpt lat="34.396037" lon="132.474581"/>
    <trkpt lat="34.396005" lon="132.474562"/>
    <trkpt lat="34.395972" lon="132.474542"/>
    <trkpt lat="34.395941" lon="132.474523"/>
    <trkpt lat="34.395908" lon="132.474503"/>
    <trkpt lat="34.395877" lon="132.474482"/>
    <trkpt lat="34.395844" lon="132.474462"/>
    <trkpt lat="34.395813" lon="132.474441"/>
    <trkpt lat="34.395781" lon="132.47442"/>
    <trkpt lat="34.39575" lon="132.4744"/>
    <trkpt lat="34.395718" lon="132.474379"/>
    <trkpt lat="34.395687" lon="132.474357"/>
    <trkpt lat="34.395655" lon="132.474337"/>
    <trkpt lat="34.395624" lon="132.474316"/>
    <trkpt lat="34.395592" lon="132.474295"/>
    <trkpt lat="34.39556" lon="132.474273"/>
    <trkpt lat="34.395529" lon="132.474253"/>
    <trkpt lat="34.395496" lon="132.474232"/>
    <trkpt lat="34.395465" lon="132.474211"/>
    <trkpt lat="34.395433" lon="132.474191"/>
    <trkpt lat="34.395402" lon="132.47417"/>
    <trkpt lat="34.395369" lon="132.47415"/>
    <trkpt lat="34.395338" lon="132.47413"/>
    <trkpt lat="34.395305" lon="132.47411"/>
    <trkpt lat="34.395275" lon="132.474088"/>
    <trkpt lat="34.395301" lon="132.474096"/>
    <trkpt lat="34.395335" lon="132.474112"/>
    <trkpt lat="34.395368" lon="132.474127"/>
    <trkpt lat="34.395402" lon="132.474144"/>
    <trkpt lat="34.395435" lon="132.47416"/>
    <trkpt lat="34.395469" lon="132.474176"/>
    <trkpt lat="34.395502" lon="132.474193"/>
    <trkpt lat="34.395535" lon="132.474209"/>
    <trkpt lat="34.395569" lon="132.474225"/>
    <trkpt lat="34.395602" lon="132.474243"/>
    <trkpt lat="34.395635" lon="132.474259"/>
    <trkpt lat="34.39567" lon="132.474274"/>
    <trkpt lat="34.395703" lon="132.474291"/>
    <trkpt lat="34.395736" lon="132.474307"/>
    <trkpt lat="34.39577" lon="132.474323"/>
    <trkpt lat="34.395803" lon="132.474339"/>
    <trkpt lat="34.395837" lon="132.474354"/>
    <trkpt lat="34.395871" lon="132.474369"/>
    <trkpt lat="34.395905" lon="132.474384"/>
    <trkpt lat="34.395939" lon="132.474397"/>
    <trkpt lat="34.395974" lon="132.474407"/>
    <trkpt lat="34.395958" lon="132.474381"/>
    <trkpt lat="34.395928" lon="132.474356"/>
    <trkpt lat="34.395898" lon="132.474333"/>
    <trkpt lat="34.395868" lon="132.474309"/>
    <trkpt lat="34.395837" lon="132.474286"/>
    <trkpt lat="34.395807" lon="132.474264"/>
    <trkpt lat="34.395777" lon="132.47424"/>
    <trkpt lat="34.395746" lon="132.474217"/>
    <trkpt lat="34.395716" lon="132.474193"/>
    <trkpt lat="34.395686" lon="132.474169"/>
    <trkpt lat="34.395655" lon="132.474146"/>
    <trkpt lat="34.395624" lon="132.474122"/>
    <trkpt lat="34.395595" lon="132.474098"/>
    <trkpt lat="34.395564" lon="132.474074"/>
    <trkpt lat="34.395534" lon="132.474051"/>
    <trkpt lat="34.395504" lon="132.474027"/>
    <trkpt lat="34.395473" lon="132.474004"/>
    <trkpt lat="34.395442" lon="132.473981"/>
    <trkpt lat="34.395413" lon="132.473958"/>
    <trkpt lat="34.395382" lon="132.473934"/>
    <trkpt lat="34.395351" lon="132.473911"/>
    <trkpt lat="34.395321" lon="132.473888"/>
    <trkpt lat="34.395291" lon="132.473864"/>
    <trkpt lat="34.39526" lon="132.47384"/>
    <trkpt lat="34.39523" lon="132.473816"/>
    <trkpt lat="34.3952" lon="132.473793"/>
    <trkpt lat="34.395169" lon="132.473769"/>
    <trkpt lat="34.39514" lon="132.473745"/>
    <trkpt lat="34.395109" lon="132.473723"/>
    <trkpt lat="34.395078" lon="132.473699"/>
    <trkpt lat="34.395049" lon="132.473676"/>
    <trkpt lat="34.395018" lon="132.473652"/>
    <trkpt lat="34.394987" lon="132.473629"/>
    <trkpt lat="34.394957" lon="132.473606"/>
    <trkpt lat="34.394926" lon="132.473583"/>
    <trkpt lat="34.394895" lon="132.47356"/>
    <trkpt lat="34.394865" lon="132.473537"/>
    <trkpt lat="34.394834" lon="132.473515"/>
    <trkpt lat="34.394803" lon="132.473492"/>
    <trkpt lat="34.394773" lon="132.473469"/>
    <trkpt lat="34.394741" lon="132.473446"/>
    <trkpt lat="34.394711" lon="132.473424"/>
    <trkpt lat="34.39468" lon="132.473401"/>
    <trkpt lat="34.394649" lon="132.473378"/>
    <trkpt lat="34.394619" lon="132.473357"/>
    <trkpt lat="34.394587" lon="132.473334"/>
    <trkpt lat="34.394556" lon="132.473311"/>
    <trkpt lat="34.394526" lon="132.473288"/>
    <trkpt lat="34.394495" lon="132.473265"/>
    <trkpt lat="34.394464" lon="132.473242"/>
    <trkpt lat="34.394434" lon="132.47322"/>
    <trkpt lat="34.394403" lon="132.473196"/>
    <trkpt lat="34.394373" lon="132.473173"/>
    <trkpt lat="34.394342" lon="132.47315"/>
    <trkpt lat="34.394311" lon="132.473127"/>
    <trkpt lat="34.394282" lon="132.473104"/>
    <trkpt lat="34.394251" lon="132.473081"/>
    <trkpt lat="34.39422" lon="132.473057"/>
    <trkpt lat="34.39419" lon="132.473034"/>
    <trkpt lat="34.394159" lon="132.473012"/>
    <trkpt lat="34.394128" lon="132.472989"/>
    <trkpt lat="34.394098" lon="132.472966"/>
    <trkpt lat="34.394067" lon="132.472942"/>
    <trkpt lat="34.394036" lon="132.472919"/>
    <trkpt lat="34.394006" lon="132.472896"/>
    <trkpt lat="34.393975" lon="132.472873"/>
    <trkpt lat="34.393945" lon="132.472849"/>
    <trkpt lat="34.393915" lon="132.472827"/>
    <trkpt lat="34.393884" lon="132.472804"/>
    <trkpt lat="34.393853" lon="132.47278"/>
    <trkpt lat="34.393823" lon="132.472757"/>
    <trkpt lat="34.393793" lon="132.472733"/>
    <trkpt lat="34.393762" lon="132.47271"/>
    <trkpt lat="34.393732" lon="132.472686"/>
    <trkpt lat="34.393701" lon="132.472663"/>
    <trkpt lat="34.393671" lon="132.472639"/>
    <trkpt lat="34.393641" lon="132.472615"/>
    <trkpt lat="34.393611" lon="132.472591"/>
    <trkpt lat="34.39358" lon="132.472569"/>
    <trkpt lat="34.393551" lon="132.472543"/>
    <trkpt lat="34.393521" lon="132.47252"/>
    <trkpt lat="34.393491" lon="132.472494"/>
    <trkpt lat="34.393461" lon="132.472471"/>
    <trkpt lat="34.393432" lon="132.472444"/>
    <trkpt lat="34.393403" lon="132.472419"/>
    <trkpt lat="34.393374" lon="132.472393"/>
    <trkpt lat="34.393345" lon="132.472367"/>
    <trkpt lat="34.393317" lon="132.47234"/>
    <trkpt lat="34.393288" lon="132.472313"/>
    <trkpt lat="34.393261" lon="132.472284"/>
    <trkpt lat="34.393233" lon="132.472256"/>
    <trkpt lat="34.393207" lon="132.472228"/>
    <trkpt lat="34.39318" lon="132.472197"/>
    <trkpt lat="34.393155" lon="132.472167"/>
    <trkpt lat="34.39313" lon="132.472136"/>
    <trkpt lat="34.393105" lon="132.472104"/>
    <trkpt lat="34.393081" lon="132.472071"/>
    <trkpt lat="34.393058" lon="132.472038"/>
    <trkpt lat="34.393035" lon="132.472003"/>
    <trkpt lat="34.393013" lon="132.47197"/>
    <trkpt lat="34.392992" lon="132.471935"/>
    <trkpt lat="34.39297" lon="132.4719"/>
    <trkpt lat="34.392948" lon="132.471865"/>
    <trkpt lat="34.392928" lon="132.471829"/>
    <trkpt lat="34.392906" lon="132.471794"/>
    <trkpt lat="34.392885" lon="132.471759"/>
    <trkpt lat="34.392866" lon="132.471723"/>
    <trkpt lat="34.392847" lon="132.471686"/>
    <trkpt lat="34.392828" lon="132.471649"/>
    <trkpt lat="34.392811" lon="132.471609"/>
    <trkpt lat="34.392797" lon="132.471569"/>
    <trkpt lat="34.392785" lon="132.471529"/>
    <trkpt lat="34.392776" lon="132.471486"/>
    <trkpt lat="34.392771" lon="132.471443"/>
    <trkpt lat="34.392767" lon="132.4714"/>
    <trkpt lat="34.392766" lon="132.471357"/>
    <trkpt lat="34.392766" lon="132.471313"/>
    <trkpt lat="34.392766" lon="132.47127"/>
    <trkpt lat="34.392769" lon="132.471226"/>
    <trkpt lat="34.392774" lon="132.471183"/>
    <trkpt lat="34.392779" lon="132.471139"/>
    <trkpt lat="34.392784" lon="132.471097"/>
    <trkpt lat="34.392791" lon="132.471054"/>
    <trkpt lat="34.392797" lon="132.471011"/>
    <trkpt lat="34.392803" lon="132.470968"/>
    <trkpt lat="34.392809" lon="132.470925"/>
    <trkpt lat="34.392814" lon="132.470882"/>
    <trkpt lat="34.392818" lon="132.470839"/>
    <trkpt lat="34.392821" lon="132.470795"/>
    <trkpt lat="34.392825" lon="132.470752"/>
    <trkpt lat="34.392829" lon="132.470709"/>
    <trkpt lat="34.392832" lon="132.470666"/>
    <trkpt lat="34.392836" lon="132.470622"/>
    <trkpt lat="34.392839" lon="132.470578"/>
    <trkpt lat="34.392843" lon="132.470535"/>
    <trkpt lat="34.392847" lon="132.470492"/>
    <trkpt lat="34.392851" lon="132.470449"/>
    <trkpt lat="34.392855" lon="132.470405"/>
    <trkpt lat="34.392858" lon="132.470362"/>
    <trkpt lat="34.392861" lon="132.470318"/>
    <trkpt lat="34.392864" lon="132.470275"/>
    <trkpt lat="34.392866" lon="132.470232"/>
    <trkpt lat="34.392867" lon="132.470189"/>
    <trkpt lat="34.392869" lon="132.470145"/>
    <trkpt lat="34.392871" lon="132.470102"/>
    <trkpt lat="34.392873" lon="132.470058"/>
    <trkpt lat="34.392875" lon="132.470014"/>
    <trkpt lat="34.392878" lon="132.469971"/>
    <trkpt lat="34.392882" lon="132.469927"/>
    <trkpt lat="34.392885" lon="132.469884"/>
    <trkpt lat="34.392891" lon="132.469841"/>
    <trkpt lat="34.392895" lon="132.469798"/>
    <trkpt lat="34.392902" lon="132.469755"/>
    <trkpt lat="34.392907" lon="132.469712"/>
    <trkpt lat="34.392913" lon="132.469669"/>
    <trkpt lat="34.39292" lon="132.469626"/>
    <trkpt lat="34.392926" lon="132.469583"/>
    <trkpt lat="34.392932" lon="132.469541"/>
    <trkpt lat="34.392939" lon="132.469497"/>
    <trkpt lat="34.392945" lon="132.469455"/>
    <trkpt lat="34.392951" lon="132.469411"/>
    <trkpt lat="34.392957" lon="132.469369"/>
    <trkpt lat="34.392963" lon="132.469326"/>
    <trkpt lat="34.392969" lon="132.469283"/>
    <trkpt lat="34.392976" lon="132.46924"/>
    <trkpt lat="34.392984" lon="132.469198"/>
    <trkpt lat="34.392991" lon="132.469156"/>
    <trkpt lat="34.392999" lon="132.469113"/>
    <trkpt lat="34.393007" lon="132.469071"/>
    <trkpt lat="34.393015" lon="132.469028"/>
    <trkpt lat="34.393022" lon="132.468986"/>
    <trkpt lat="34.393031" lon="132.468942"/>
    <trkpt lat="34.393037" lon="132.4689"/>
    <trkpt lat="34.393044" lon="132.468857"/>
    <trkpt lat="34.393049" lon="132.468814"/>
    <trkpt lat="34.393055" lon="132.468771"/>
    <trkpt lat="34.39306" lon="132.468728"/>
    <trkpt lat="34.393066" lon="132.468685"/>
    <trkpt lat="34.393071" lon="132.468642"/>
    <trkpt lat="34.393076" lon="132.468599"/>
    <trkpt lat="34.393081" lon="132.468556"/>
    <trkpt lat="34.393085" lon="132.468512"/>
    <trkpt lat="34.393091" lon="132.46847"/>
    <trkpt lat="34.393095" lon="132.468426"/>
    <trkpt lat="34.3931" lon="132.468383"/>
    <trkpt lat="34.393104" lon="132.46834"/>
    <trkpt lat="34.393109" lon="132.468297"/>
    <trkpt lat="34.393113" lon="132.468253"/>
    <trkpt lat="34.393117" lon="132.468209"/>
    <trkpt lat="34.393121" lon="132.468167"/>
    <trkpt lat="34.393124" lon="132.468123"/>
    <trkpt lat="34.393127" lon="132.46808"/>
    <trkpt lat="34.393131" lon="132.468036"/>
    <trkpt lat="34.393133" lon="132.467993"/>
    <trkpt lat="34.393137" lon="132.467949"/>
    <trkpt lat="34.39314" lon="132.467907"/>
    <trkpt lat="34.393142" lon="132.467863"/>
    <trkpt lat="34.393146" lon="132.46782"/>
    <trkpt lat="34.393149" lon="132.467776"/>
    <trkpt lat="34.393151" lon="132.467733"/>
    <trkpt lat="34.393155" lon="132.467689"/>
    <trkpt lat="34.393158" lon="132.467646"/>
    <trkpt lat="34.39316" lon="132.467603"/>
    <trkpt lat="34.393164" lon="132.46756"/>
    <trkpt lat="34.393167" lon="132.467516"/>
    <trkpt lat="34.393169" lon="132.467472"/>
    <trkpt lat="34.393173" lon="132.467429"/>
    <trkpt lat="34.393176" lon="132.467385"/>
    <trkpt lat="34.393178" lon="132.467342"/>
    <trkpt lat="34.393182" lon="132.467299"/>
    <trkpt lat="34.393186" lon="132.467256"/>
    <trkpt lat="34.393189" lon="132.467212"/>
    <trkpt lat="34.393193" lon="132.467169"/>
    <trkpt lat="34.393196" lon="132.467125"/>
    <trkpt lat="34.393201" lon="132.467083"/>
    <trkpt lat="34.393205" lon="132.467039"/>
    <trkpt lat="34.39321" lon="132.466996"/>
    <trkpt lat="34.393214" lon="132.466953"/>
    <trkpt lat="34.393219" lon="132.46691"/>
    <trkpt lat="34.393224" lon="132.466866"/>
    <trkpt lat="34.39323" lon="132.466824"/>
    <trkpt lat="34.393235" lon="132.46678"/>
    <trkpt lat="34.393241" lon="132.466738"/>
    <trkpt lat="34.393246" lon="132.466694"/>
    <trkpt lat="34.393252" lon="132.466652"/>
    <trkpt lat="34.393259" lon="132.466608"/>
    <trkpt lat="34.393265" lon="132.466566"/>
    <trkpt lat="34.393271" lon="132.466523"/>
    <trkpt lat="34.393277" lon="132.46648"/>
    <trkpt lat="34.393285" lon="132.466437"/>
    <trkpt lat="34.393291" lon="132.466395"/>
    <trkpt lat="34.393298" lon="132.466352"/>
    <trkpt lat="34.393305" lon="132.466309"/>
    <trkpt lat="34.393313" lon="132.466266"/>
    <trkpt lat="34.39332" lon="132.466224"/>
    <trkpt lat="34.393327" lon="132.466181"/>
    <trkpt lat="34.393334" lon="132.466139"/>
    <trkpt lat="34.393342" lon="132.466096"/>
    <trkpt lat="34.39335" lon="132.466054"/>
    <trkpt lat="34.393358" lon="132.46601"/>
    <trkpt lat="34.393366" lon="132.465968"/>
    <trkpt lat="34.393374" lon="132.465925"/>
    <trkpt lat="34.393382" lon="132.465883"/>
    <trkpt lat="34.39339" lon="132.46584"/>
    <trkpt lat="34.393397" lon="132.465798"/>
    <trkpt lat="34.393405" lon="132.465756"/>
    <trkpt lat="34.393413" lon="132.465713"/>
    <trkpt lat="34.39342" lon="132.465671"/>
    <trkpt lat="34.393428" lon="132.465628"/>
    <trkpt lat="34.393435" lon="132.465586"/>
    <trkpt lat="34.393442" lon="132.465543"/>
    <trkpt lat="34.39345" lon="132.4655"/>
    <trkpt lat="34.393457" lon="132.465457"/>
    <trkpt lat="34.393464" lon="132.465415"/>
    <trkpt lat="34.393471" lon="132.465372"/>
    <trkpt lat="34.393478" lon="132.46533"/>
    <trkpt lat="34.393487" lon="132.465287"/>
    <trkpt lat="34.393494" lon="132.465244"/>
    <trkpt lat="34.393502" lon="132.465201"/>
    <trkpt lat="34.393509" lon="132.465159"/>
    <trkpt lat="34.393517" lon="132.465117"/>
    <trkpt lat="34.393524" lon="132.465074"/>
    <trkpt lat="34.393532" lon="132.465032"/>
    <trkpt lat="34.393539" lon="132.464989"/>
    <trkpt lat="34.393546" lon="132.464947"/>
    <trkpt lat="34.393553" lon="132.464903"/>
    <trkpt lat="34.39356" lon="132.464861"/>
    <trkpt lat="34.393567" lon="132.464818"/>
    <trkpt lat="34.393574" lon="132.464776"/>
    <trkpt lat="34.393581" lon="132.464732"/>
    <trkpt lat="34.393588" lon="132.46469"/>
    <trkpt lat="34.393595" lon="132.464647"/>
    <trkpt lat="34.393602" lon="132.464605"/>
    <trkpt lat="34.393609" lon="132.464561"/>
    <trkpt lat="34.393616" lon="132.464519"/>
    <trkpt lat="34.393624" lon="132.464476"/>
    <trkpt lat="34.393632" lon="132.464434"/>
    <trkpt lat="34.393639" lon="132.464391"/>
    <trkpt lat="34.393647" lon="132.464349"/>
    <trkpt lat="34.393654" lon="132.464307"/>
    <trkpt lat="34.393661" lon="132.464264"/>
    <trkpt lat="34.393669" lon="132.464221"/>
    <trkpt lat="34.393677" lon="132.464178"/>
    <trkpt lat="34.393684" lon="132.464136"/>
    <trkpt lat="34.393691" lon="132.464093"/>
    <trkpt lat="34.393699" lon="132.464051"/>
    <trkpt lat="34.393706" lon="132.464008"/>
    <trkpt lat="34.393715" lon="132.463966"/>
    <trkpt lat="34.393722" lon="132.463923"/>
    <trkpt lat="34.393729" lon="132.46388"/>
    <trkpt lat="34.393737" lon="132.463837"/>
    <trkpt lat="34.393744" lon="132.463795"/>
    <trkpt lat="34.393752" lon="132.463752"/>
    <trkpt lat="34.39376" lon="132.46371"/>
    <trkpt lat="34.393767" lon="132.463667"/>
    <trkpt lat="34.393774" lon="132.463625"/>
    <trkpt lat="34.393782" lon="132.463583"/>
    <trkpt lat="34.393789" lon="132.463539"/>
    <trkpt lat="34.393798" lon="132.463497"/>
    <trkpt lat="34.393805" lon="132.463454"/>
    <trkpt lat="34.393813" lon="132.463412"/>
    <trkpt lat="34.393821" lon="132.463369"/>
    <trkpt lat="34.393829" lon="132.463327"/>
    <trkpt lat="34.393838" lon="132.463284"/>
    <trkpt lat="34.393846" lon="132.463243"/>
    <trkpt lat="34.393854" lon="132.4632"/>
    <trkpt lat="34.393863" lon="132.463158"/>
    <trkpt lat="34.393871" lon="132.463116"/>
    <trkpt lat="34.39388" lon="132.463073"/>
    <trkpt lat="34.393888" lon="132.463031"/>
    <trkpt lat="34.393896" lon="132.462988"/>
    <trkpt lat="34.393904" lon="132.462946"/>
    <trkpt lat="34.393912" lon="132.462903"/>
    <trkpt lat="34.39392" lon="132.462861"/>
    <trkpt lat="34.393928" lon="132.462818"/>
    <trkpt lat="34.393937" lon="132.462776"/>
    <trkpt lat="34.393946" lon="132.462734"/>
    <trkpt lat="34.393954" lon="132.462692"/>
    <trkpt lat="34.393963" lon="132.46265"/>
    <trkpt lat="34.393973" lon="132.462607"/>
    <trkpt lat="34.393982" lon="132.462566"/>
    <trkpt lat="34.393991" lon="132.462523"/>
    <trkpt lat="34.394" lon="132.462481"/>
    <trkpt lat="34.394009" lon="132.462439"/>
    <trkpt lat="34.394018" lon="132.462397"/>
    <trkpt lat="34.394027" lon="132.462355"/>
    <trkpt lat="34.394035" lon="132.462312"/>
    <trkpt lat="34.394044" lon="132.46227"/>
    <trkpt lat="34.394053" lon="132.462228"/>
    <trkpt lat="34.394063" lon="132.462186"/>
    <trkpt lat="34.394072" lon="132.462143"/>
    <trkpt lat="34.394081" lon="132.462101"/>
    <trkpt lat="34.39409" lon="132.46206"/>
    <trkpt lat="34.394099" lon="132.462017"/>
    <trkpt lat="34.394108" lon="132.461975"/>
    <trkpt lat="34.394117" lon="132.461933"/>
    <trkpt lat="34.394126" lon="132.461891"/>
    <trkpt lat="34.394136" lon="132.461848"/>
    <trkpt lat="34.394145" lon="132.461807"/>
    <trkpt lat="34.394154" lon="132.461764"/>
    <trkpt lat="34.394164" lon="132.461723"/>
    <trkpt lat="34.394174" lon="132.461681"/>
    <trkpt lat="34.394184" lon="132.461639"/>
    <trkpt lat="34.394194" lon="132.461597"/>
    <trkpt lat="34.394204" lon="132.461555"/>
    <trkpt lat="34.394214" lon="132.461513"/>
    <trkpt lat="34.394224" lon="132.461472"/>
    <trkpt lat="34.394235" lon="132.46143"/>
    <trkpt lat="34.394245" lon="132.461388"/>
    <trkpt lat="34.394254" lon="132.461346"/>
    <trkpt lat="34.394265" lon="132.461305"/>
    <trkpt lat="34.394275" lon="132.461263"/>
    <trkpt lat="34.394285" lon="132.461221"/>
    <trkpt lat="34.394296" lon="132.461179"/>
    <trkpt lat="34.394306" lon="132.461137"/>
    <trkpt lat="34.394316" lon="132.461096"/>
    <trkpt lat="34.394326" lon="132.461054"/>
    <trkpt lat="34.394335" lon="132.461012"/>
    <trkpt lat="34.394345" lon="132.46097"/>
    <trkpt lat="34.394355" lon="132.460928"/>
    <trkpt lat="34.394365" lon="132.460886"/>
    <trkpt lat="34.394375" lon="132.460845"/>
    <trkpt lat="34.394386" lon="132.460803"/>
    <trkpt lat="34.394397" lon="132.460761"/>
    <trkpt lat="34.394407" lon="132.460719"/>
    <trkpt lat="34.394418" lon="132.460678"/>
    <trkpt lat="34.394428" lon="132.460637"/>
    <trkpt lat="34.394438" lon="132.460594"/>
    <trkpt lat="34.394448" lon="132.460553"/>
    <trkpt lat="34.394457" lon="132.46051"/>
    <trkpt lat="34.394467" lon="132.460469"/>
    <trkpt lat="34.394476" lon="132.460426"/>
    <trkpt lat="34.394485" lon="132.460384"/>
    <trkpt lat="34.394495" lon="132.460343"/>
    <trkpt lat="34.394505" lon="132.4603"/>
    <trkpt lat="34.394515" lon="132.460259"/>
    <trkpt lat="34.394525" lon="132.460217"/>
    <trkpt lat="34.394536" lon="132.460175"/>
    <trkpt lat="34.394546" lon="132.460134"/>
    <trkpt lat="34.394556" lon="132.460092"/>
    <trkpt lat="34.394566" lon="132.46005"/>
    <trkpt lat="34.394576" lon="132.460008"/>
    <trkpt lat="34.394587" lon="132.459967"/>
    <trkpt lat="34.394598" lon="132.459925"/>
    <trkpt lat="34.39461" lon="132.459883"/>
    <trkpt lat="34.39462" lon="132.459843"/>
    <trkpt lat="34.394632" lon="132.459802"/>
    <trkpt lat="34.394645" lon="132.45976"/>
    <trkpt lat="34.394656" lon="132.459719"/>
    <trkpt lat="34.394668" lon="132.459679"/>
    <trkpt lat="34.39468" lon="132.459637"/>
    <trkpt lat="34.394692" lon="132.459596"/>
    <trkpt lat="34.394702" lon="132.459554"/>
    <trkpt lat="34.394713" lon="132.459512"/>
    <trkpt lat="34.394723" lon="132.459471"/>
    <trkpt lat="34.394732" lon="132.459428"/>
    <trkpt lat="34.394741" lon="132.459387"/>
    <trkpt lat="34.39475" lon="132.459344"/>
    <trkpt lat="34.394758" lon="132.459302"/>
    <trkpt lat="34.394767" lon="132.459259"/>
    <trkpt lat="34.394776" lon="132.459217"/>
    <trkpt lat="34.394785" lon="132.459176"/>
    <trkpt lat="34.394796" lon="132.459133"/>
    <trkpt lat="34.394808" lon="132.459092"/>
    <trkpt lat="34.39482" lon="132.459051"/>
    <trkpt lat="34.394831" lon="132.45901"/>
    <trkpt lat="34.394844" lon="132.458969"/>
    <trkpt lat="34.394856" lon="132.458928"/>
    <trkpt lat="34.394867" lon="132.458887"/>
    <trkpt lat="34.394878" lon="132.458846"/>
    <trkpt lat="34.394889" lon="132.458804"/>
    <trkpt lat="34.3949" lon="132.458762"/>
    <trkpt lat="34.394911" lon="132.458721"/>
    <trkpt lat="34.394921" lon="132.458679"/>
    <trkpt lat="34.39493" lon="132.458637"/>
    <trkpt lat="34.39494" lon="132.458595"/>
    <trkpt lat="34.394951" lon="132.458554"/>
    <trkpt lat="34.394961" lon="132.458512"/>
    <trkpt lat="34.394971" lon="132.45847"/>
    <trkpt lat="34.394982" lon="132.458428"/>
    <trkpt lat="34.394993" lon="132.458386"/>
    <trkpt lat="34.395003" lon="132.458345"/>
    <trkpt lat="34.395016" lon="132.458305"/>
    <trkpt lat="34.39503" lon="132.458264"/>
    <trkpt lat="34.395043" lon="132.458224"/>
    <trkpt lat="34.395058" lon="132.458184"/>
    <trkpt lat="34.395074" lon="132.458145"/>
    <trkpt lat="34.39509" lon="132.458107"/>
    <trkpt lat="34.395107" lon="132.458067"/>
    <trkpt lat="34.395124" lon="132.458029"/>
    <trkpt lat="34.395141" lon="132.457991"/>
    <trkpt lat="34.395158" lon="132.457952"/>
    <trkpt lat="34.395175" lon="132.457914"/>
    <trkpt lat="34.395191" lon="132.457875"/>
    <trkpt lat="34.395206" lon="132.457835"/>
    <trkpt lat="34.395221" lon="132.457795"/>
    <trkpt lat="34.395234" lon="132.457755"/>
    <trkpt lat="34.395248" lon="132.457715"/>
    <trkpt lat="34.39526" lon="132.457674"/>
    <trkpt lat="34.395273" lon="132.457633"/>
    <trkpt lat="34.395285" lon="132.457592"/>
    <trkpt lat="34.395297" lon="132.457551"/>
    <trkpt lat="34.395309" lon="132.45751"/>
    <trkpt lat="34.395322" lon="132.45747"/>
    <trkpt lat="34.395335" lon="132.457428"/>
    <trkpt lat="34.395348" lon="132.457388"/>
    <trkpt lat="34.395361" lon="132.457348"/>
    <trkpt lat="34.395375" lon="132.457307"/>
    <trkpt lat="34.395387" lon="132.457266"/>
    <trkpt lat="34.3954" lon="132.457226"/>
    <trkpt lat="34.395413" lon="132.457186"/>
    <trkpt lat="34.395424" lon="132.457144"/>
    <trkpt lat="34.395436" lon="132.457103"/>
    <trkpt lat="34.395447" lon="132.457061"/>
    <trkpt lat="34.395458" lon="132.457019"/>
    <trkpt lat="34.395467" lon="132.456978"/>
    <trkpt lat="34.395476" lon="132.456935"/>
    <trkpt lat="34.395483" lon="132.456893"/>
    <trkpt lat="34.39549" lon="132.45685"/>
    <trkpt lat="34.395496" lon="132.456807"/>
    <trkpt lat="34.3955" lon="132.456763"/>
    <trkpt lat="34.395504" lon="132.456721"/>
    <trkpt lat="34.395506" lon="132.456677"/>
    <trkpt lat="34.39551" lon="132.456634"/>
    <trkpt lat="34.395513" lon="132.45659"/>
    <trkpt lat="34.395515" lon="132.456546"/>
    <trkpt lat="34.395517" lon="132.456503"/>
    <trkpt lat="34.39552" lon="132.456459"/>
    <trkpt lat="34.395523" lon="132.456416"/>
    <trkpt lat="34.395525" lon="132.456373"/>
    <trkpt lat="34.395528" lon="132.45633"/>
    <trkpt lat="34.395532" lon="132.456286"/>
    <trkpt lat="34.395536" lon="132.456243"/>
    <trkpt lat="34.395541" lon="132.456199"/>
    <trkpt lat="34.395546" lon="132.456157"/>
    <trkpt lat="34.395551" lon="132.456113"/>
    <trkpt lat="34.395558" lon="132.456071"/>
    <trkpt lat="34.395564" lon="132.456028"/>
    <trkpt lat="34.39557" lon="132.455985"/>
    <trkpt lat="34.395578" lon="132.455942"/>
    <trkpt lat="34.395586" lon="132.4559"/>
    <trkpt lat="34.395594" lon="132.455857"/>
    <trkpt lat="34.395603" lon="132.455815"/>
    <trkpt lat="34.395613" lon="132.455773"/>
    <trkpt lat="34.395623" lon="132.455732"/>
    <trkpt lat="34.395633" lon="132.45569"/>
    <trkpt lat="34.395644" lon="132.455648"/>
    <trkpt lat="34.395655" lon="132.455607"/>
    <trkpt lat="34.395665" lon="132.455566"/>
    <trkpt lat="34.395676" lon="132.455523"/>
    <trkpt lat="34.395686" lon="132.455482"/>
    <trkpt lat="34.395696" lon="132.455439"/>
    <trkpt lat="34.395706" lon="132.455398"/>
    <trkpt lat="34.395716" lon="132.455355"/>
    <trkpt lat="34.395725" lon="132.455314"/>
    <trkpt lat="34.395734" lon="132.455272"/>
    <trkpt lat="34.395744" lon="132.45523"/>
    <trkpt lat="34.395753" lon="132.455188"/>
    <trkpt lat="34.395762" lon="132.455146"/>
    <trkpt lat="34.395771" lon="132.455104"/>
    <trkpt lat="34.395781" lon="132.455061"/>
    <trkpt lat="34.395791" lon="132.45502"/>
    <trkpt lat="34.395801" lon="132.454978"/>
    <trkpt lat="34.395812" lon="132.454936"/>
    <trkpt lat="34.395822" lon="132.454895"/>
    <trkpt lat="34.395833" lon="132.454854"/>
    <trkpt lat="34.395843" lon="132.454811"/>
    <trkpt lat="34.395853" lon="132.45477"/>
    <trkpt lat="34.395862" lon="132.454727"/>
    <trkpt lat="34.395871" lon="132.454685"/>
    <trkpt lat="34.39588" lon="132.454642"/>
    <trkpt lat="34.395889" lon="132.454601"/>
    <trkpt lat="34.395898" lon="132.454559"/>
    <trkpt lat="34.395908" lon="132.454517"/>
    <trkpt lat="34.395919" lon="132.454476"/>
    <trkpt lat="34.395931" lon="132.454434"/>
    <trkpt lat="34.395942" lon="132.454393"/>
    <trkpt lat="34.395953" lon="132.454352"/>
    <trkpt lat="34.395963" lon="132.454309"/>
    <trkpt lat="34.395973" lon="132.454268"/>
    <trkpt lat="34.395982" lon="132.454225"/>
    <trkpt lat="34.395991" lon="132.454183"/>
    <trkpt lat="34.396" lon="132.454142"/>
    <trkpt lat="34.396009" lon="132.454099"/>
    <trkpt lat="34.396018" lon="132.454057"/>
    <trkpt lat="34.396026" lon="132.454014"/>
    <trkpt lat="34.396036" lon="132.453973"/>
    <trkpt lat="34.396045" lon="132.45393"/>
    <trkpt lat="34.396054" lon="132.453888"/>
    <trkpt lat="34.396064" lon="132.453847"/>
    <trkpt lat="34.396074" lon="132.453804"/>
    <trkpt lat="34.396084" lon="132.453763"/>
    <trkpt lat="34.396094" lon="132.45372"/>
    <trkpt lat="34.396104" lon="132.453679"/>
    <trkpt lat="34.396114" lon="132.453636"/>
    <trkpt lat="34.396123" lon="132.453595"/>
    <trkpt lat="34.396133" lon="132.453553"/>
    <trkpt lat="34.396143" lon="132.453511"/>
    <trkpt lat="34.396153" lon="132.453469"/>
    <trkpt lat="34.396163" lon="132.453427"/>
    <trkpt lat="34.396172" lon="132.453386"/>
    <trkpt lat="34.396182" lon="132.453344"/>
    <trkpt lat="34.396192" lon="132.453302"/>
    <trkpt lat="34.396202" lon="132.45326"/>
    <trkpt lat="34.396211" lon="132.453217"/>
    <trkpt lat="34.396221" lon="132.453176"/>
    <trkpt lat="34.39623" lon="132.453133"/>
    <trkpt lat="34.396239" lon="132.453092"/>
    <trkpt lat="34.396248" lon="132.45305"/>
    <trkpt lat="34.396258" lon="132.453007"/>
    <trkpt lat="34.396267" lon="132.452966"/>
    <trkpt lat="34.396276" lon="132.452923"/>
    <trkpt lat="34.396285" lon="132.452881"/>
    <trkpt lat="34.396294" lon="132.452838"/>
    <trkpt lat="34.396303" lon="132.452797"/>
    <trkpt lat="34.396311" lon="132.452755"/>
    <trkpt lat="34.396319" lon="132.452712"/>
    <trkpt lat="34.396327" lon="132.45267"/>
    <trkpt lat="34.396336" lon="132.452627"/>
    <trkpt lat="34.396345" lon="132.452585"/>
    <trkpt lat="34.396354" lon="132.452542"/>
    <trkpt lat="34.396364" lon="132.452501"/>
    <trkpt lat="34.396375" lon="132.45246"/>
    <trkpt lat="34.396386" lon="132.452418"/>
    <trkpt lat="34.396398" lon="132.452377"/>
    <trkpt lat="34.39641" lon="132.452335"/>
    <trkpt lat="34.39642" lon="132.452294"/>
    <trkpt lat="34.396431" lon="132.452253"/>
    <trkpt lat="34.396441" lon="132.45221"/>
    <trkpt lat="34.396451" lon="132.452169"/>
    <trkpt lat="34.39646" lon="132.452126"/>
    <trkpt lat="34.39647" lon="132.452085"/>
    <trkpt lat="34.396478" lon="132.452043"/>
    <trkpt lat="34.396486" lon="132.452"/>
    <trkpt lat="34.396493" lon="132.451958"/>
    <trkpt lat="34.3965" lon="132.451914"/>
    <trkpt lat="34.396505" lon="132.451872"/>
    <trkpt lat="34.39651" lon="132.451828"/>
    <trkpt lat="34.396515" lon="132.451785"/>
    <trkpt lat="34.396521" lon="132.451742"/>
    <trkpt lat="34.396528" lon="132.4517"/>
    <trkpt lat="34.396537" lon="132.451657"/>
    <trkpt lat="34.396548" lon="132.451616"/>
    <trkpt lat="34.39656" lon="132.451574"/>
    <trkpt lat="34.396573" lon="132.451534"/>
    <trkpt lat="34.396586" lon="132.451493"/>
    <trkpt lat="34.396599" lon="132.451453"/>
    <trkpt lat="34.396611" lon="132.451411"/>
    <trkpt lat="34.396621" lon="132.45137"/>
    <trkpt lat="34.396631" lon="132.451328"/>
    <trkpt lat="34.396639" lon="132.451286"/>
    <trkpt lat="34.396647" lon="132.451242"/>
    <trkpt lat="34.396653" lon="132.4512"/>
    <trkpt lat="34.396659" lon="132.451157"/>
    <trkpt lat="34.396665" lon="132.451114"/>
    <trkpt lat="34.39667" lon="132.451071"/>
    <trkpt lat="34.396675" lon="132.451028"/>
    <trkpt lat="34.396682" lon="132.450985"/>
    <trkpt lat="34.396687" lon="132.450942"/>
    <trkpt lat="34.396693" lon="132.450899"/>
    <trkpt lat="34.3967" lon="132.450856"/>
    <trkpt lat="34.396707" lon="132.450813"/>
    <trkpt lat="34.396713" lon="132.450771"/>
    <trkpt lat="34.39672" lon="132.450729"/>
    <trkpt lat="34.396728" lon="132.450685"/>
    <trkpt lat="34.396734" lon="132.450643"/>
    <trkpt lat="34.396741" lon="132.4506"/>
    <trkpt lat="34.396747" lon="132.450557"/>
    <trkpt lat="34.396754" lon="132.450514"/>
    <trkpt lat="34.396759" lon="132.450472"/>
    <trkpt lat="34.396765" lon="132.450428"/>
    <trkpt lat="34.39677" lon="132.450385"/>
    <trkpt lat="34.396775" lon="132.450342"/>
    <trkpt lat="34.39678" lon="132.450299"/>
    <trkpt lat="34.396784" lon="132.450256"/>
    <trkpt lat="34.396791" lon="132.450213"/>
    <trkpt lat="34.396797" lon="132.45017"/>
    <trkpt lat="34.396804" lon="132.450128"/>
    <trkpt lat="34.396812" lon="132.450085"/>
    <trkpt lat="34.396821" lon="132.450043"/>
    <trkpt lat="34.39683" lon="132.45"/>
    <trkpt lat="34.396839" lon="132.449958"/>
    <trkpt lat="34.396847" lon="132.449915"/>
    <trkpt lat="34.396855" lon="132.449873"/>
    <trkpt lat="34.396863" lon="132.44983"/>
    <trkpt lat="34.39687" lon="132.449788"/>
    <trkpt lat="34.396877" lon="132.449745"/>
    <trkpt lat="34.396884" lon="132.449703"/>
    <trkpt lat="34.396892" lon="132.449659"/>
    <trkpt lat="34.396898" lon="132.449617"/>
    <trkpt lat="34.396905" lon="132.449575"/>
    <trkpt lat="34.396912" lon="132.449531"/>
    <trkpt lat="34.396919" lon="132.449489"/>
    <trkpt lat="34.396925" lon="132.449446"/>
    <trkpt lat="34.396933" lon="132.449404"/>
    <trkpt lat="34.396941" lon="132.449361"/>
    <trkpt lat="34.396949" lon="132.449319"/>
    <trkpt lat="34.396959" lon="132.449276"/>
    <trkpt lat="34.396968" lon="132.449235"/>
    <trkpt lat="34.396978" lon="132.449192"/>
    <trkpt lat="34.396988" lon="132.449151"/>
    <trkpt lat="34.396999" lon="132.449109"/>
    <trkpt lat="34.397009" lon="132.449067"/>
    <trkpt lat="34.39702" lon="132.449026"/>
    <trkpt lat="34.397031" lon="132.448984"/>
    <trkpt lat="34.397041" lon="132.448943"/>
    <trkpt lat="34.397052" lon="132.448901"/>
    <trkpt lat="34.397063" lon="132.448859"/>
    <trkpt lat="34.397075" lon="132.448818"/>
    <trkpt lat="34.397085" lon="132.448777"/>
    <trkpt lat="34.397097" lon="132.448736"/>
    <trkpt lat="34.397109" lon="132.448695"/>
    <trkpt lat="34.397122" lon="132.448654"/>
    <trkpt lat="34.397133" lon="132.448613"/>
    <trkpt lat="34.397146" lon="132.448572"/>
    <trkpt lat="34.397158" lon="132.448531"/>
    <trkpt lat="34.397171" lon="132.44849"/>
    <trkpt lat="34.397185" lon="132.44845"/>
    <trkpt lat="34.397198" lon="132.44841"/>
    <trkpt lat="34.397212" lon="132.448369"/>
    <trkpt lat="34.397225" lon="132.448329"/>
    <trkpt lat="34.397241" lon="132.448289"/>
    <trkpt lat="34.397255" lon="132.44825"/>
    <trkpt lat="34.39727" lon="132.44821"/>
    <trkpt lat="34.397286" lon="132.448171"/>
    <trkpt lat="34.397302" lon="132.448132"/>
    <trkpt lat="34.397318" lon="132.448093"/>
    <trkpt lat="34.397333" lon="132.448054"/>
    <trkpt lat="34.397349" lon="132.448014"/>
    <trkpt lat="34.397363" lon="132.447974"/>
    <trkpt lat="34.397377" lon="132.447934"/>
    <trkpt lat="34.397388" lon="132.447893"/>
    <trkpt lat="34.397399" lon="132.447851"/>
    <trkpt lat="34.397409" lon="132.447809"/>
    <trkpt lat="34.397417" lon="132.447766"/>
    <trkpt lat="34.397425" lon="132.447724"/>
    <trkpt lat="34.397434" lon="132.447682"/>
    <trkpt lat="34.397443" lon="132.44764"/>
    <trkpt lat="34.397455" lon="132.447599"/>
    <trkpt lat="34.397469" lon="132.447558"/>
    <trkpt lat="34.397487" lon="132.44752"/>
    <trkpt lat="34.397506" lon="132.447484"/>
    <trkpt lat="34.397529" lon="132.447451"/>
    <trkpt lat="34.397555" lon="132.44742"/>
    <trkpt lat="34.397583" lon="132.447393"/>
    <trkpt lat="34.397614" lon="132.44737"/>
    <trkpt lat="34.397646" lon="132.447351"/>
    <trkpt lat="34.39768" lon="132.447338"/>
    <trkpt lat="34.397716" lon="132.447329"/>
    <trkpt lat="34.397752" lon="132.447324"/>
    <trkpt lat="34.397788" lon="132.447322"/>
    <trkpt lat="34.397824" lon="132.447324"/>
    <trkpt lat="34.39786" lon="132.447328"/>
    <trkpt lat="34.397896" lon="132.447333"/>
    <trkpt lat="34.397931" lon="132.447341"/>
    <trkpt lat="34.397966" lon="132.447349"/>
    <trkpt lat="34.398001" lon="132.447359"/>
    <trkpt lat="34.398036" lon="132.44737"/>
    <trkpt lat="34.398072" lon="132.447381"/>
    <trkpt lat="34.398106" lon="132.447392"/>
    <trkpt lat="34.398141" lon="132.447402"/>
    <trkpt lat="34.398176" lon="132.447411"/>
    <trkpt lat="34.398212" lon="132.44742"/>
    <trkpt lat="34.398247" lon="132.447428"/>
    <trkpt lat="34.398282" lon="132.447435"/>
    <trkpt lat="34.398318" lon="132.447442"/>
    <trkpt lat="34.398354" lon="132.447448"/>
    <trkpt lat="34.39839" lon="132.447455"/>
    <trkpt lat="34.398425" lon="132.447461"/>
    <trkpt lat="34.398461" lon="132.447469"/>
    <trkpt lat="34.398496" lon="132.447477"/>
    <trkpt lat="34.398532" lon="132.447484"/>
    <trkpt lat="34.398567" lon="132.447492"/>
    <trkpt lat="34.398602" lon="132.447501"/>
    <trkpt lat="34.398638" lon="132.447509"/>
    <trkpt lat="34.398674" lon="132.447518"/>
    <trkpt lat="34.398709" lon="132.447527"/>
    <trkpt lat="34.398744" lon="132.447537"/>
    <trkpt lat="34.398779" lon="132.447545"/>
    <trkpt lat="34.398814" lon="132.447555"/>
    <trkpt lat="34.398849" lon="132.447565"/>
    <trkpt lat="34.398884" lon="132.447575"/>
    <trkpt lat="34.39892" lon="132.447584"/>
    <trkpt lat="34.398955" lon="132.447593"/>
    <trkpt lat="34.39899" lon="132.447603"/>
    <trkpt lat="34.399025" lon="132.447613"/>
    <trkpt lat="34.39906" lon="132.447623"/>
    <trkpt lat="34.399095" lon="132.447631"/>
    <trkpt lat="34.399131" lon="132.447641"/>
    <trkpt lat="34.399166" lon="132.44765"/>
    <trkpt lat="34.399201" lon="132.447658"/>
    <trkpt lat="34.399237" lon="132.447668"/>
    <trkpt lat="34.399272" lon="132.447678"/>
    <trkpt lat="34.399307" lon="132.447687"/>
    <trkpt lat="34.399342" lon="132.447696"/>
    <trkpt lat="34.399378" lon="132.447704"/>
    <trkpt lat="34.399413" lon="132.447712"/>
    <trkpt lat="34.399449" lon="132.447719"/>
    <trkpt lat="34.399485" lon="132.447725"/>
    <trkpt lat="34.39952" lon="132.447729"/>
    <trkpt lat="34.399556" lon="132.447731"/>
    <trkpt lat="34.399592" lon="132.447734"/>
    <trkpt lat="34.399628" lon="132.447735"/>
    <trkpt lat="34.399664" lon="132.447737"/>
    <trkpt lat="34.3997" lon="132.447739"/>
    <trkpt lat="34.399736" lon="132.447742"/>
    <trkpt lat="34.399772" lon="132.447748"/>
    <trkpt lat="34.399807" lon="132.447755"/>
    <trkpt lat="34.399843" lon="132.447764"/>
    <trkpt lat="34.399878" lon="132.447773"/>
    <trkpt lat="34.399913" lon="132.447784"/>
    <trkpt lat="34.399948" lon="132.447796"/>
    <trkpt lat="34.399982" lon="132.447807"/>
    <trkpt lat="34.400017" lon="132.447819"/>
    <trkpt lat="34.400052" lon="132.44783"/>
    <trkpt lat="34.400087" lon="132.447842"/>
    <trkpt lat="34.400121" lon="132.447854"/>
    <trkpt lat="34.400156" lon="132.447865"/>
    <trkpt lat="34.40019" lon="132.447877"/>
    <trkpt lat="34.400226" lon="132.447889"/>
    <trkpt lat="34.40026" lon="132.447901"/>
    <trkpt lat="34.400295" lon="132.447913"/>
    <trkpt lat="34.400329" lon="132.447925"/>
    <trkpt lat="34.400364" lon="132.447938"/>
    <trkpt lat="34.400399" lon="132.447951"/>
    <trkpt lat="34.400432" lon="132.447965"/>
    <trkpt lat="34.400466" lon="132.447981"/>
    <trkpt lat="34.4005" lon="132.447998"/>
    <trkpt lat="34.400532" lon="132.448016"/>
    <trkpt lat="34.400565" lon="132.448035"/>
    <trkpt lat="34.400596" lon="132.448056"/>
    <trkpt lat="34.400628" lon="132.448078"/>
    <trkpt lat="34.400659" lon="132.448099"/>
    <trkpt lat="34.40069" lon="132.44812"/>
    <trkpt lat="34.400721" lon="132.448142"/>
    <trkpt lat="34.400753" lon="132.448163"/>
    <trkpt lat="34.400785" lon="132.448183"/>
    <trkpt lat="34.400817" lon="132.448205"/>
    <trkpt lat="34.400848" lon="132.448227"/>
    <trkpt lat="34.400878" lon="132.44825"/>
    <trkpt lat="34.400907" lon="132.448276"/>
    <trkpt lat="34.400933" lon="132.448305"/>
    <trkpt lat="34.400958" lon="132.448338"/>
    <trkpt lat="34.400976" lon="132.448375"/>
    <trkpt lat="34.400992" lon="132.448414"/>
    <trkpt lat="34.401003" lon="132.448455"/>
    <trkpt lat="34.401009" lon="132.448499"/>
    <trkpt lat="34.401012" lon="132.448542"/>
    <trkpt lat="34.401012" lon="132.448586"/>
    <trkpt lat="34.401009" lon="132.448628"/>
    <trkpt lat="34.401003" lon="132.448672"/>
    <trkpt lat="34.400997" lon="132.448715"/>
    <trkpt lat="34.40099" lon="132.448757"/>
    <trkpt lat="34.400981" lon="132.448799"/>
    <trkpt lat="34.400972" lon="132.448842"/>
    <trkpt lat="34.400962" lon="132.448883"/>
    <trkpt lat="34.400952" lon="132.448926"/>
    <trkpt lat="34.400943" lon="132.448968"/>
    <trkpt lat="34.400935" lon="132.449011"/>
    <trkpt lat="34.400927" lon="132.449053"/>
    <trkpt lat="34.400919" lon="132.449096"/>
    <trkpt lat="34.400912" lon="132.449138"/>
    <trkpt lat="34.400904" lon="132.44918"/>
    <trkpt lat="34.400897" lon="132.449223"/>
    <trkpt lat="34.40089" lon="132.449265"/>
    <trkpt lat="34.400883" lon="132.449308"/>
    <trkpt lat="34.400875" lon="132.449351"/>
    <trkpt lat="34.400867" lon="132.449394"/>
    <trkpt lat="34.400859" lon="132.449436"/>
    <trkpt lat="34.400851" lon="132.449479"/>
    <trkpt lat="34.400843" lon="132.449521"/>
    <trkpt lat="34.400835" lon="132.449564"/>
    <trkpt lat="34.400827" lon="132.449606"/>
    <trkpt lat="34.400819" lon="132.449648"/>
    <trkpt lat="34.400811" lon="132.44969"/>
    <trkpt lat="34.400802" lon="132.449732"/>
    <trkpt lat="34.400794" lon="132.449776"/>
    <trkpt lat="34.400787" lon="132.449818"/>
    <trkpt lat="34.400781" lon="132.449861"/>
    <trkpt lat="34.400774" lon="132.449903"/>
    <trkpt lat="34.400767" lon="132.449947"/>
    <trkpt lat="34.40076" lon="132.449989"/>
    <trkpt lat="34.400752" lon="132.450032"/>
    <trkpt lat="34.400744" lon="132.450074"/>
    <trkpt lat="34.400735" lon="132.450117"/>
    <trkpt lat="34.400726" lon="132.450158"/>
    <trkpt lat="34.400717" lon="132.450201"/>
    <trkpt lat="34.400708" lon="132.450243"/>
    <trkpt lat="34.400699" lon="132.450284"/>
    <trkpt lat="34.400691" lon="132.450327"/>
    <trkpt lat="34.400682" lon="132.450369"/>
    <trkpt lat="34.400674" lon="132.450412"/>
    <trkpt lat="34.400665" lon="132.450454"/>
    <trkpt lat="34.400656" lon="132.450497"/>
    <trkpt lat="34.400647" lon="132.450538"/>
    <trkpt lat="34.400637" lon="132.45058"/>
    <trkpt lat="34.400627" lon="132.450622"/>
    <trkpt lat="34.400618" lon="132.450664"/>
    <trkpt lat="34.40061" lon="132.450707"/>
    <trkpt lat="34.400603" lon="132.450749"/>
    <trkpt lat="34.400601" lon="132.450793"/>
    <trkpt lat="34.400601" lon="132.450836"/>
    <trkpt lat="34.400605" lon="132.45088"/>
    <trkpt lat="34.400612" lon="132.450922"/>
    <trkpt lat="34.40062" lon="132.450965"/>
    <trkpt lat="34.40063" lon="132.451007"/>
    <trkpt lat="34.400638" lon="132.451049"/>
    <trkpt lat="34.400646" lon="132.451092"/>
    <trkpt lat="34.400651" lon="132.451135"/>
    <trkpt lat="34.400655" lon="132.451178"/>
    <trkpt lat="34.400656" lon="132.451222"/>
    <trkpt lat="34.400657" lon="132.451265"/>
    <trkpt lat="34.400658" lon="132.451309"/>
    <trkpt lat="34.400657" lon="132.451352"/>
    <trkpt lat="34.400657" lon="132.451396"/>
    <trkpt lat="34.400656" lon="132.451439"/>
    <trkpt lat="34.400655" lon="132.451483"/>
    <trkpt lat="34.400653" lon="132.451527"/>
    <trkpt lat="34.40065" lon="132.45157"/>
    <trkpt lat="34.400648" lon="132.451614"/>
    <trkpt lat="34.400647" lon="132.451657"/>
    <trkpt lat="34.400644" lon="132.451701"/>
    <trkpt lat="34.400642" lon="132.451743"/>
    <trkpt lat="34.400641" lon="132.451787"/>
    <trkpt lat="34.400639" lon="132.45183"/>
    <trkpt lat="34.400638" lon="132.451874"/>
    <trkpt lat="34.400636" lon="132.451917"/>
    <trkpt lat="34.400634" lon="132.451961"/>
    <trkpt lat="34.400631" lon="132.452004"/>
    <trkpt lat="34.400629" lon="132.452048"/>
    <trkpt lat="34.400627" lon="132.452092"/>
    <trkpt lat="34.400625" lon="132.452135"/>
    <trkpt lat="34.400623" lon="132.452179"/>
    <trkpt lat="34.400621" lon="132.452222"/>
    <trkpt lat="34.400619" lon="132.452266"/>
    <trkpt lat="34.400617" lon="132.452309"/>
    <trkpt lat="34.400615" lon="132.452353"/>
    <trkpt lat="34.400612" lon="132.452396"/>
    <trkpt lat="34.40061" lon="132.452439"/>
    <trkpt lat="34.400608" lon="132.452482"/>
    <trkpt lat="34.400605" lon="132.452526"/>
    <trkpt lat="34.400602" lon="132.45257"/>
    <trkpt lat="34.400601" lon="132.452613"/>
    <trkpt lat="34.400598" lon="132.452657"/>
    <trkpt lat="34.400595" lon="132.4527"/>
    <trkpt lat="34.400593" lon="132.452744"/>
    <trkpt lat="34.400591" lon="132.452787"/>
    <trkpt lat="34.400589" lon="132.452831"/>
    <trkpt lat="34.400587" lon="132.452874"/>
    <trkpt lat="34.400585" lon="132.452918"/>
    <trkpt lat="34.400583" lon="132.452961"/>
    <trkpt lat="34.400582" lon="132.453005"/>
    <trkpt lat="34.40058" lon="132.453047"/>
    <trkpt lat="34.400577" lon="132.453091"/>
    <trkpt lat="34.400575" lon="132.453135"/>
    <trkpt lat="34.400573" lon="132.453178"/>
    <trkpt lat="34.400571" lon="132.453222"/>
    <trkpt lat="34.400568" lon="132.453265"/>
    <trkpt lat="34.400566" lon="132.453309"/>
    <trkpt lat="34.400565" lon="132.453352"/>
    <trkpt lat="34.400562" lon="132.453396"/>
    <trkpt lat="34.400559" lon="132.453439"/>
    <trkpt lat="34.400556" lon="132.453483"/>
    <trkpt lat="34.400554" lon="132.453525"/>
    <trkpt lat="34.400551" lon="132.453569"/>
    <trkpt lat="34.400547" lon="132.453612"/>
    <trkpt lat="34.400542" lon="132.453656"/>
    <trkpt lat="34.400537" lon="132.453698"/>
    <trkpt lat="34.40053" lon="132.453742"/>
    <trkpt lat="34.400523" lon="132.453784"/>
    <trkpt lat="34.400515" lon="132.453827"/>
    <trkpt lat="34.400507" lon="132.453869"/>
    <trkpt lat="34.4005" lon="132.453912"/>
    <trkpt lat="34.400493" lon="132.453954"/>
    <trkpt lat="34.400488" lon="132.453998"/>
    <trkpt lat="34.400484" lon="132.454041"/>
    <trkpt lat="34.400482" lon="132.454085"/>
    <trkpt lat="34.40048" lon="132.454128"/>
    <trkpt lat="34.400479" lon="132.454172"/>
    <trkpt lat="34.400478" lon="132.454216"/>
    <trkpt lat="34.400478" lon="132.454259"/>
    <trkpt lat="34.400478" lon="132.454303"/>
    <trkpt lat="34.400477" lon="132.454346"/>
    <trkpt lat="34.400476" lon="132.45439"/>
    <trkpt lat="34.400474" lon="132.454432"/>
    <trkpt lat="34.400471" lon="132.454476"/>
    <trkpt lat="34.400466" lon="132.454519"/>
    <trkpt lat="34.400461" lon="132.454562"/>
    <trkpt lat="34.400453" lon="132.454605"/>
    <trkpt lat="34.400445" lon="132.454648"/>
    <trkpt lat="34.400436" lon="132.454689"/>
    <trkpt lat="34.400426" lon="132.454732"/>
    <trkpt lat="34.400416" lon="132.454773"/>
    <trkpt lat="34.400406" lon="132.454814"/>
    <trkpt lat="34.400395" lon="132.454857"/>
    <trkpt lat="34.400385" lon="132.454898"/>
    <trkpt lat="34.400375" lon="132.454941"/>
    <trkpt lat="34.400365" lon="132.454982"/>
    <trkpt lat="34.400356" lon="132.455024"/>
    <trkpt lat="34.400346" lon="132.455066"/>
    <trkpt lat="34.400337" lon="132.455108"/>
    <trkpt lat="34.400326" lon="132.45515"/>
    <trkpt lat="34.400316" lon="132.455191"/>
    <trkpt lat="34.400306" lon="132.455234"/>
    <trkpt lat="34.400295" lon="132.455275"/>
    <trkpt lat="34.400284" lon="132.455316"/>
    <trkpt lat="34.400273" lon="132.455359"/>
    <trkpt lat="34.400263" lon="132.4554"/>
    <trkpt lat="34.400253" lon="132.455441"/>
    <trkpt lat="34.400243" lon="132.455484"/>
    <trkpt lat="34.400233" lon="132.455525"/>
    <trkpt lat="34.400224" lon="132.455568"/>
    <trkpt lat="34.400215" lon="132.45561"/>
    <trkpt lat="34.400207" lon="132.455652"/>
    <trkpt lat="34.400199" lon="132.455694"/>
    <trkpt lat="34.40019" lon="132.455736"/>
    <trkpt lat="34.40018" lon="132.455779"/>
    <trkpt lat="34.40017" lon="132.45582"/>
    <trkpt lat="34.400158" lon="132.455862"/>
    <trkpt lat="34.400145" lon="132.455902"/>
    <trkpt lat="34.400133" lon="132.455943"/>
    <trkpt lat="34.400119" lon="132.455984"/>
    <trkpt lat="34.400106" lon="132.456024"/>
    <trkpt lat="34.400092" lon="132.456064"/>
    <trkpt lat="34.40008" lon="132.456106"/>
    <trkpt lat="34.400069" lon="132.456146"/>
    <trkpt lat="34.400058" lon="132.456188"/>
    <trkpt lat="34.400048" lon="132.45623"/>
    <trkpt lat="34.400039" lon="132.456272"/>
    <trkpt lat="34.400032" lon="132.456315"/>
    <trkpt lat="34.400026" lon="132.456358"/>
    <trkpt lat="34.400021" lon="132.456401"/>
    <trkpt lat="34.400019" lon="132.456444"/>
    <trkpt lat="34.40002" lon="132.456488"/>
    <trkpt lat="34.400024" lon="132.456531"/>
    <trkpt lat="34.400031" lon="132.456574"/>
    <trkpt lat="34.400041" lon="132.456615"/>
    <trkpt lat="34.400053" lon="132.456656"/>
    <trkpt lat="34.400064" lon="132.456698"/>
    <trkpt lat="34.400072" lon="132.45674"/>
    <trkpt lat="34.400066" lon="132.456784"/>
    <trkpt lat="34.400049" lon="132.456821"/>
    <trkpt lat="34.400027" lon="132.456856"/>
    <trkpt lat="34.400006" lon="132.456892"/>
    <trkpt lat="34.399986" lon="132.456927"/>
    <trkpt lat="34.39997" lon="132.456967"/>
    <trkpt lat="34.399956" lon="132.457007"/>
    <trkpt lat="34.399945" lon="132.457048"/>
    <trkpt lat="34.399935" lon="132.45709"/>
    <trkpt lat="34.399926" lon="132.457132"/>
    <trkpt lat="34.399916" lon="132.457175"/>
    <trkpt lat="34.399907" lon="132.457216"/>
    <trkpt lat="34.399897" lon="132.457258"/>
    <trkpt lat="34.399886" lon="132.4573"/>
    <trkpt lat="34.399874" lon="132.457341"/>
    <trkpt lat="34.399861" lon="132.457381"/>
    <trkpt lat="34.399846" lon="132.457421"/>
    <trkpt lat="34.399831" lon="132.45746"/>
    <trkpt lat="34.399814" lon="132.457499"/>
    <trkpt lat="34.399797" lon="132.457537"/>
    <trkpt lat="34.399779" lon="132.457575"/>
    <trkpt lat="34.399761" lon="132.457613"/>
    <trkpt lat="34.399744" lon="132.457651"/>
    <trkpt lat="34.399728" lon="132.457691"/>
    <trkpt lat="34.399713" lon="132.45773"/>
    <trkpt lat="34.399697" lon="132.457769"/>
    <trkpt lat="34.399684" lon="132.457809"/>
    <trkpt lat="34.39967" lon="132.457851"/>
    <trkpt lat="34.399658" lon="132.457891"/>
    <trkpt lat="34.399646" lon="132.457932"/>
    <trkpt lat="34.399633" lon="132.457973"/>
    <trkpt lat="34.399621" lon="132.458014"/>
    <trkpt lat="34.399608" lon="132.458054"/>
    <trkpt lat="34.399597" lon="132.458096"/>
    <trkpt lat="34.399584" lon="132.458137"/>
    <trkpt lat="34.399572" lon="132.458177"/>
    <trkpt lat="34.39956" lon="132.458219"/>
    <trkpt lat="34.399549" lon="132.45826"/>
    <trkpt lat="34.399538" lon="132.458301"/>
    <trkpt lat="34.399527" lon="132.458343"/>
    <trkpt lat="34.399516" lon="132.458384"/>
    <trkpt lat="34.399505" lon="132.458426"/>
    <trkpt lat="34.399495" lon="132.458468"/>
    <trkpt lat="34.399484" lon="132.458509"/>
    <trkpt lat="34.399474" lon="132.458551"/>
    <trkpt lat="34.399463" lon="132.458592"/>
    <trkpt lat="34.399452" lon="132.458635"/>
    <trkpt lat="34.399442" lon="132.458676"/>
    <trkpt lat="34.399431" lon="132.458717"/>
    <trkpt lat="34.39942" lon="132.458759"/>
    <trkpt lat="34.399407" lon="132.4588"/>
    <trkpt lat="34.399394" lon="132.45884"/>
    <trkpt lat="34.399379" lon="132.458879"/>
    <trkpt lat="34.399361" lon="132.458918"/>
    <trkpt lat="34.399341" lon="132.458954"/>
    <trkpt lat="34.399318" lon="132.458987"/>
    <trkpt lat="34.399291" lon="132.459016"/>
    <trkpt lat="34.399261" lon="132.45904"/>
    <trkpt lat="34.399228" lon="132.459056"/>
    <trkpt lat="34.399193" lon="132.459066"/>
    <trkpt lat="34.399157" lon="132.45907"/>
    <trkpt lat="34.399121" lon="132.459068"/>
    <trkpt lat="34.399085" lon="132.459063"/>
    <trkpt lat="34.399049" lon="132.459056"/>
    <trkpt lat="34.399014" lon="132.459047"/>
    <trkpt lat="34.398979" lon="132.459038"/>
    <trkpt lat="34.398944" lon="132.459029"/>
    <trkpt lat="34.398909" lon="132.459018"/>
    <trkpt lat="34.398874" lon="132.459008"/>
    <trkpt lat="34.398839" lon="132.458998"/>
    <trkpt lat="34.398803" lon="132.458988"/>
    <trkpt lat="34.398768" lon="132.458977"/>
    <trkpt lat="34.398733" lon="132.458968"/>
    <trkpt lat="34.398698" lon="132.458958"/>
    <trkpt lat="34.398664" lon="132.458947"/>
    <trkpt lat="34.398629" lon="132.458937"/>
    <trkpt lat="34.398593" lon="132.458927"/>
    <trkpt lat="34.398558" lon="132.458918"/>
    <trkpt lat="34.398523" lon="132.458908"/>
    <trkpt lat="34.398488" lon="132.458898"/>
    <trkpt lat="34.398453" lon="132.458889"/>
    <trkpt lat="34.398418" lon="132.458879"/>
    <trkpt lat="34.398382" lon="132.45887"/>
    <trkpt lat="34.398347" lon="132.45886"/>
    <trkpt lat="34.398312" lon="132.45885"/>
    <trkpt lat="34.398277" lon="132.45884"/>
    <trkpt lat="34.398242" lon="132.45883"/>
    <trkpt lat="34.398207" lon="132.458821"/>
    <trkpt lat="34.398172" lon="132.45881"/>
    <trkpt lat="34.398136" lon="132.4588"/>
    <trkpt lat="34.398101" lon="132.45879"/>
    <trkpt lat="34.398066" lon="132.458779"/>
    <trkpt lat="34.398031" lon="132.45877"/>
    <trkpt lat="34.397996" lon="132.45876"/>
    <trkpt lat="34.397961" lon="132.45875"/>
    <trkpt lat="34.397926" lon="132.45874"/>
    <trkpt lat="34.39789" lon="132.45873"/>
    <trkpt lat="34.397855" lon="132.458723"/>
    <trkpt lat="34.39782" lon="132.458715"/>
    <trkpt lat="34.397784" lon="132.458712"/>
    <trkpt lat="34.397748" lon="132.458711"/>
    <trkpt lat="34.397712" lon="132.458716"/>
    <trkpt lat="34.397677" lon="132.458727"/>
    <trkpt lat="34.397643" lon="132.458743"/>
    <trkpt lat="34.397613" lon="132.458765"/>
    <trkpt lat="34.397584" lon="132.458791"/>
    <trkpt lat="34.397557" lon="132.458821"/>
    <trkpt lat="34.397533" lon="132.458853"/>
    <trkpt lat="34.397512" lon="132.458888"/>
    <trkpt lat="34.397492" lon="132.458924"/>
    <trkpt lat="34.397475" lon="132.458963"/>
    <trkpt lat="34.39746" lon="132.459003"/>
    <trkpt lat="34.397447" lon="132.459043"/>
    <trkpt lat="34.397434" lon="132.459084"/>
    <trkpt lat="34.397423" lon="132.459126"/>
    <trkpt lat="34.397413" lon="132.459167"/>
    <trkpt lat="34.397403" lon="132.459208"/>
    <trkpt lat="34.397392" lon="132.459251"/>
    <trkpt lat="34.397382" lon="132.459292"/>
    <trkpt lat="34.397372" lon="132.459333"/>
    <trkpt lat="34.397362" lon="132.459376"/>
    <trkpt lat="34.397352" lon="132.459417"/>
    <trkpt lat="34.397342" lon="132.45946"/>
    <trkpt lat="34.397332" lon="132.459501"/>
    <trkpt lat="34.397323" lon="132.459544"/>
    <trkpt lat="34.397314" lon="132.459586"/>
    <trkpt lat="34.397305" lon="132.459627"/>
    <trkpt lat="34.397295" lon="132.45967"/>
    <trkpt lat="34.397286" lon="132.459711"/>
    <trkpt lat="34.397276" lon="132.459754"/>
    <trkpt lat="34.397267" lon="132.459795"/>
    <trkpt lat="34.397257" lon="132.459838"/>
    <trkpt lat="34.397248" lon="132.45988"/>
    <trkpt lat="34.397238" lon="132.459921"/>
    <trkpt lat="34.397229" lon="132.459964"/>
    <trkpt lat="34.39722" lon="132.460006"/>
    <trkpt lat="34.397211" lon="132.460049"/>
    <trkpt lat="34.397203" lon="132.46009"/>
    <trkpt lat="34.397193" lon="132.460133"/>
    <trkpt lat="34.397184" lon="132.460175"/>
    <trkpt lat="34.397175" lon="132.460216"/>
    <trkpt lat="34.397165" lon="132.460259"/>
    <trkpt lat="34.397155" lon="132.4603"/>
    <trkpt lat="34.397146" lon="132.460343"/>
    <trkpt lat="34.397136" lon="132.460384"/>
    <trkpt lat="34.397127" lon="132.460426"/>
    <trkpt lat="34.397117" lon="132.460469"/>
    <trkpt lat="34.397108" lon="132.46051"/>
    <trkpt lat="34.3971" lon="132.460553"/>
    <trkpt lat="34.397091" lon="132.460595"/>
    <trkpt lat="34.397084" lon="132.460638"/>
    <trkpt lat="34.397076" lon="132.46068"/>
    <trkpt lat="34.397072" lon="132.460724"/>
    <trkpt lat="34.397069" lon="132.460767"/>
    <trkpt lat="34.397071" lon="132.460811"/>
    <trkpt lat="34.397079" lon="132.460853"/>
    <trkpt lat="34.397093" lon="132.460894"/>
    <trkpt lat="34.397113" lon="132.460929"/>
    <trkpt lat="34.397138" lon="132.46096"/>
    <trkpt lat="34.397167" lon="132.460986"/>
    <trkpt lat="34.397198" lon="132.461008"/>
    <trkpt lat="34.397232" lon="132.461025"/>
    <trkpt lat="34.397265" lon="132.461041"/>
    <trkpt lat="34.397299" lon="132.461055"/>
    <trkpt lat="34.397333" lon="132.461068"/>
    <trkpt lat="34.397368" lon="132.461081"/>
    <trkpt lat="34.397403" lon="132.461093"/>
    <trkpt lat="34.397437" lon="132.461105"/>
    <trkpt lat="34.397471" lon="132.461118"/>
    <trkpt lat="34.397506" lon="132.46113"/>
    <trkpt lat="34.397541" lon="132.461142"/>
    <trkpt lat="34.397575" lon="132.461155"/>
    <trkpt lat="34.39761" lon="132.461167"/>
    <trkpt lat="34.397644" lon="132.461179"/>
    <trkpt lat="34.397679" lon="132.461191"/>
    <trkpt lat="34.397714" lon="132.461203"/>
    <trkpt lat="34.397749" lon="132.461214"/>
    <trkpt lat="34.397783" lon="132.461226"/>
    <trkpt lat="34.397818" lon="132.461238"/>
    <trkpt lat="34.397853" lon="132.461251"/>
    <trkpt lat="34.397887" lon="132.461264"/>
    <trkpt lat="34.397921" lon="132.461277"/>
    <trkpt lat="34.397955" lon="132.46129"/>
    <trkpt lat="34.397989" lon="132.461304"/>
    <trkpt lat="34.398024" lon="132.461317"/>
    <trkpt lat="34.398058" lon="132.461331"/>
    <trkpt lat="34.398092" lon="132.461344"/>
    <trkpt lat="34.398127" lon="132.461357"/>
    <trkpt lat="34.398162" lon="132.46137"/>
    <trkpt lat="34.398196" lon="132.461383"/>
    <trkpt lat="34.39823" lon="132.461395"/>
    <trkpt lat="34.398265" lon="132.461406"/>
    <trkpt lat="34.3983" lon="132.461417"/>
    <trkpt lat="34.398336" lon="132.461426"/>
    <trkpt lat="34.398372" lon="132.461432"/>
    <trkpt lat="34.398407" lon="132.461438"/>
    <trkpt lat="34.398443" lon="132.46144"/>
    <trkpt lat="34.398479" lon="132.46144"/>
    <trkpt lat="34.398515" lon="132.461436"/>
    <trkpt lat="34.39855" lon="132.461427"/>
    <trkpt lat="34.398584" lon="132.461414"/>
    <trkpt lat="34.398618" lon="132.461397"/>
    <trkpt lat="34.398648" lon="132.461374"/>
    <trkpt lat="34.398678" lon="132.461349"/>
    <trkpt lat="34.398705" lon="132.461319"/>
    <trkpt lat="34.398729" lon="132.461288"/>
    <trkpt lat="34.398752" lon="132.461254"/>
    <trkpt lat="34.398773" lon="132.461218"/>
    <trkpt lat="34.398791" lon="132.46118"/>
    <trkpt lat="34.398806" lon="132.461141"/>
    <trkpt lat="34.39882" lon="132.4611"/>
    <trkpt lat="34.398832" lon="132.46106"/>
    <trkpt lat="34.398843" lon="132.461019"/>
    <trkpt lat="34.398855" lon="132.460977"/>
    <trkpt lat="34.398868" lon="132.460937"/>
    <trkpt lat="34.398885" lon="132.460898"/>
    <trkpt lat="34.398906" lon="132.460863"/>
    <trkpt lat="34.398931" lon="132.460833"/>
    <trkpt lat="34.398962" lon="132.46081"/>
    <trkpt lat="34.398996" lon="132.460796"/>
    <trkpt lat="34.399032" lon="132.46079"/>
    <trkpt lat="34.399068" lon="132.46079"/>
    <trkpt lat="34.399104" lon="132.460796"/>
    <trkpt lat="34.39914" lon="132.460803"/>
    <trkpt lat="34.399175" lon="132.460813"/>
    <trkpt lat="34.39921" lon="132.460823"/>
    <trkpt lat="34.399244" lon="132.460834"/>
    <trkpt lat="34.399279" lon="132.460846"/>
    <trkpt lat="34.399314" lon="132.460857"/>
    <trkpt lat="34.399349" lon="132.460868"/>
    <trkpt lat="34.399383" lon="132.460882"/>
    <trkpt lat="34.399418" lon="132.460894"/>
    <trkpt lat="34.399452" lon="132.460907"/>
    <trkpt lat="34.399487" lon="132.460919"/>
    <trkpt lat="34.399522" lon="132.460932"/>
    <trkpt lat="34.399556" lon="132.460944"/>
    <trkpt lat="34.39959" lon="132.460957"/>
    <trkpt lat="34.399625" lon="132.460969"/>
    <trkpt lat="34.39966" lon="132.460981"/>
    <trkpt lat="34.399694" lon="132.460994"/>
    <trkpt lat="34.399729" lon="132.461006"/>
    <trkpt lat="34.399763" lon="132.461018"/>
    <trkpt lat="34.399798" lon="132.461031"/>
    <trkpt lat="34.399833" lon="132.461043"/>
    <trkpt lat="34.399867" lon="132.461056"/>
    <trkpt lat="34.399901" lon="132.461068"/>
    <trkpt lat="34.399936" lon="132.461081"/>
    <trkpt lat="34.399971" lon="132.461093"/>
    <trkpt lat="34.400005" lon="132.461106"/>
    <trkpt lat="34.40004" lon="132.461118"/>
    <trkpt lat="34.400074" lon="132.461131"/>
    <trkpt lat="34.400108" lon="132.461144"/>
    <trkpt lat="34.400143" lon="132.461156"/>
    <trkpt lat="34.400178" lon="132.461169"/>
    <trkpt lat="34.400212" lon="132.461182"/>
    <trkpt lat="34.400246" lon="132.461194"/>
    <trkpt lat="34.400282" lon="132.461207"/>
    <trkpt lat="34.400316" lon="132.461219"/>
    <trkpt lat="34.40035" lon="132.461231"/>
    <trkpt lat="34.400385" lon="132.461244"/>
    <trkpt lat="34.400419" lon="132.461256"/>
    <trkpt lat="34.400454" lon="132.461268"/>
    <trkpt lat="34.400489" lon="132.461281"/>
    <trkpt lat="34.400523" lon="132.461293"/>
    <trkpt lat="34.400557" lon="132.461306"/>
    <trkpt lat="34.400592" lon="132.461318"/>
    <trkpt lat="34.400627" lon="132.461331"/>
    <trkpt lat="34.400661" lon="132.461343"/>
    <trkpt lat="34.400696" lon="132.461355"/>
    <trkpt lat="34.40073" lon="132.461367"/>
    <trkpt lat="34.400766" lon="132.461378"/>
    <trkpt lat="34.400801" lon="132.461389"/>
    <trkpt lat="34.400836" lon="132.461398"/>
    <trkpt lat="34.400871" lon="132.461406"/>
    <trkpt lat="34.400907" lon="132.461413"/>
    <trkpt lat="34.400942" lon="132.461419"/>
    <trkpt lat="34.400978" lon="132.461426"/>
    <trkpt lat="34.401013" lon="132.461432"/>
    <trkpt lat="34.401049" lon="132.461441"/>
    <trkpt lat="34.401084" lon="132.461452"/>
    <trkpt lat="34.401118" lon="132.461466"/>
    <trkpt lat="34.401151" lon="132.461481"/>
    <trkpt lat="34.401185" lon="132.461498"/>
    <trkpt lat="34.401218" lon="132.461516"/>
    <trkpt lat="34.40125" lon="132.461534"/>
    <trkpt lat="34.401284" lon="132.461551"/>
    <trkpt lat="34.401317" lon="132.461569"/>
    <trkpt lat="34.40135" lon="132.461584"/>
    <trkpt lat="34.401385" lon="132.461599"/>
    <trkpt lat="34.401419" lon="132.461612"/>
    <trkpt lat="34.401453" lon="132.461626"/>
    <trkpt lat="34.401487" lon="132.461638"/>
    <trkpt lat="34.401522" lon="132.461651"/>
    <trkpt lat="34.401556" lon="132.461664"/>
    <trkpt lat="34.401591" lon="132.461677"/>
    <trkpt lat="34.401625" lon="132.461689"/>
    <trkpt lat="34.40166" lon="132.461702"/>
    <trkpt lat="34.401694" lon="132.461715"/>
    <trkpt lat="34.401729" lon="132.461727"/>
    <trkpt lat="34.401763" lon="132.461741"/>
    <trkpt lat="34.401798" lon="132.461754"/>
    <trkpt lat="34.401832" lon="132.461767"/>
    <trkpt lat="34.401867" lon="132.461779"/>
    <trkpt lat="34.401901" lon="132.461792"/>
    <trkpt lat="34.401935" lon="132.461804"/>
    <trkpt lat="34.401971" lon="132.461817"/>
    <trkpt lat="34.402005" lon="132.461829"/>
    <trkpt lat="34.402039" lon="132.461841"/>
    <trkpt lat="34.402074" lon="132.461853"/>
    <trkpt lat="34.402108" lon="132.461865"/>
    <trkpt lat="34.402144" lon="132.461877"/>
    <trkpt lat="34.402178" lon="132.46189"/>
    <trkpt lat="34.402212" lon="132.461902"/>
    <trkpt lat="34.402247" lon="132.461915"/>
    <trkpt lat="34.402282" lon="132.461928"/>
    <trkpt lat="34.402316" lon="132.46194"/>
    <trkpt lat="34.40235" lon="132.461953"/>
    <trkpt lat="34.402385" lon="132.461966"/>
    <trkpt lat="34.402419" lon="132.461978"/>
    <trkpt lat="34.402454" lon="132.461991"/>
    <trkpt lat="34.402489" lon="132.462003"/>
    <trkpt lat="34.402523" lon="132.462015"/>
    <trkpt lat="34.402557" lon="132.462027"/>
    <trkpt lat="34.402592" lon="132.46204"/>
    <trkpt lat="34.402627" lon="132.462052"/>
    <trkpt lat="34.402661" lon="132.462065"/>
    <trkpt lat="34.402696" lon="132.462077"/>
    <trkpt lat="34.40273" lon="132.46209"/>
    <trkpt lat="34.402765" lon="132.462103"/>
    <trkpt lat="34.402799" lon="132.462116"/>
    <trkpt lat="34.402833" lon="132.462129"/>
    <trkpt lat="34.402867" lon="132.462144"/>
    <trkpt lat="34.402901" lon="132.462161"/>
    <trkpt lat="34.402933" lon="132.462179"/>
    <trkpt lat="34.402965" lon="132.462201"/>
    <trkpt lat="34.402994" lon="132.462226"/>
    <trkpt lat="34.403021" lon="132.462254"/>
    <trkpt lat="34.403046" lon="132.462286"/>
    <trkpt lat="34.403067" lon="132.462322"/>
    <trkpt lat="34.403083" lon="132.462361"/>
    <trkpt lat="34.403095" lon="132.462402"/>
    <trkpt lat="34.403101" lon="132.462445"/>
    <trkpt lat="34.403103" lon="132.462488"/>
    <trkpt lat="34.403101" lon="132.462532"/>
    <trkpt lat="34.403095" lon="132.462574"/>
    <trkpt lat="34.403089" lon="132.462618"/>
    <trkpt lat="34.403081" lon="132.46266"/>
    <trkpt lat="34.403073" lon="132.462703"/>
    <trkpt lat="34.403064" lon="132.462744"/>
    <trkpt lat="34.403055" lon="132.462787"/>
    <trkpt lat="34.403045" lon="132.462829"/>
    <trkpt lat="34.403036" lon="132.462871"/>
    <trkpt lat="34.403026" lon="132.462913"/>
    <trkpt lat="34.403017" lon="132.462954"/>
    <trkpt lat="34.403007" lon="132.462997"/>
    <trkpt lat="34.402997" lon="132.463038"/>
    <trkpt lat="34.402987" lon="132.463081"/>
    <trkpt lat="34.402977" lon="132.463122"/>
    <trkpt lat="34.402967" lon="132.463165"/>
    <trkpt lat="34.402958" lon="132.463206"/>
    <trkpt lat="34.402948" lon="132.463248"/>
    <trkpt lat="34.402938" lon="132.46329"/>
    <trkpt lat="34.402928" lon="132.463332"/>
    <trkpt lat="34.402918" lon="132.463374"/>
    <trkpt lat="34.402908" lon="132.463416"/>
    <trkpt lat="34.402898" lon="132.463457"/>
    <trkpt lat="34.402888" lon="132.4635"/>
    <trkpt lat="34.402878" lon="132.463541"/>
    <trkpt lat="34.402868" lon="132.463583"/>
    <trkpt lat="34.402858" lon="132.463625"/>
    <trkpt lat="34.402848" lon="132.463666"/>
    <trkpt lat="34.402838" lon="132.463709"/>
    <trkpt lat="34.402828" lon="132.46375"/>
    <trkpt lat="34.402818" lon="132.463793"/>
    <trkpt lat="34.402809" lon="132.463834"/>
    <trkpt lat="34.402799" lon="132.463877"/>
    <trkpt lat="34.402789" lon="132.463918"/>
    <trkpt lat="34.40278" lon="132.46396"/>
    <trkpt lat="34.40277" lon="132.464002"/>
    <trkpt lat="34.40276" lon="132.464044"/>
    <trkpt lat="34.40275" lon="132.464086"/>
    <trkpt lat="34.40274" lon="132.464128"/>
    <trkpt lat="34.40273" lon="132.464169"/>
    <trkpt lat="34.40272" lon="132.464211"/>
    <trkpt lat="34.402711" lon="132.464253"/>
    <trkpt lat="34.402701" lon="132.464295"/>
    <trkpt lat="34.402691" lon="132.464337"/>
    <trkpt lat="34.402681" lon="132.464378"/>
    <trkpt lat="34.402671" lon="132.464421"/>
    <trkpt lat="34.402661" lon="132.464462"/>
    <trkpt lat="34.402651" lon="132.464505"/>
    <trkpt lat="34.402641" lon="132.464546"/>
    <trkpt lat="34.402631" lon="132.464589"/>
    <trkpt lat="34.40262" lon="132.46463"/>
    <trkpt lat="34.402611" lon="132.464671"/>
    <trkpt lat="34.402601" lon="132.464714"/>
    <trkpt lat="34.402591" lon="132.464755"/>
    <trkpt lat="34.402582" lon="132.464798"/>
    <trkpt lat="34.402572" lon="132.464839"/>
    <trkpt lat="34.402562" lon="132.464881"/>
    <trkpt lat="34.402552" lon="132.464923"/>
    <trkpt lat="34.402543" lon="132.464965"/>
    <trkpt lat="34.402533" lon="132.465007"/>
    <trkpt lat="34.402523" lon="132.465049"/>
    <trkpt lat="34.402513" lon="132.46509"/>
    <trkpt lat="34.402503" lon="132.465133"/>
    <trkpt lat="34.402493" lon="132.465174"/>
    <trkpt lat="34.402483" lon="132.465217"/>
    <trkpt lat="34.402474" lon="132.465258"/>
    <trkpt lat="34.402464" lon="132.465301"/>
    <trkpt lat="34.402454" lon="132.465342"/>
    <trkpt lat="34.402444" lon="132.465384"/>
    <trkpt lat="34.402434" lon="132.465426"/>
    <trkpt lat="34.402424" lon="132.465468"/>
    <trkpt lat="34.402414" lon="132.46551"/>
    <trkpt lat="34.402405" lon="132.465552"/>
    <trkpt lat="34.402396" lon="132.465593"/>
    <trkpt lat="34.402389" lon="132.465637"/>
    <trkpt lat="34.402383" lon="132.465679"/>
    <trkpt lat="34.402382" lon="132.465723"/>
    <trkpt lat="34.402384" lon="132.465766"/>
    <trkpt lat="34.402393" lon="132.465809"/>
    <trkpt lat="34.40241" lon="132.465847"/>
    <trkpt lat="34.402432" lon="132.465881"/>
    <trkpt lat="34.40246" lon="132.465908"/>
    <trkpt lat="34.402492" lon="132.465929"/>
    <trkpt lat="34.402526" lon="132.465942"/>
    <trkpt lat="34.402561" lon="132.465949"/>
    <trkpt lat="34.402597" lon="132.465953"/>
    <trkpt lat="34.402633" lon="132.465952"/>
    <trkpt lat="34.402669" lon="132.465948"/>
    <trkpt lat="34.402705" lon="132.465943"/>
    <trkpt lat="34.402741" lon="132.465937"/>
    <trkpt lat="34.402776" lon="132.465932"/>
    <trkpt lat="34.402812" lon="132.465925"/>
    <trkpt lat="34.402848" lon="132.46592"/>
    <trkpt lat="34.402884" lon="132.465913"/>
    <trkpt lat="34.402919" lon="132.465906"/>
    <trkpt lat="34.402955" lon="132.465899"/>
    <trkpt lat="34.40299" lon="132.465892"/>
    <trkpt lat="34.403026" lon="132.465883"/>
    <trkpt lat="34.403061" lon="132.465874"/>
    <trkpt lat="34.403096" lon="132.465866"/>
    <trkpt lat="34.403131" lon="132.465855"/>
    <trkpt lat="34.403167" lon="132.465845"/>
    <trkpt lat="34.403201" lon="132.465834"/>
    <trkpt lat="34.403236" lon="132.465822"/>
    <trkpt lat="34.403271" lon="132.465811"/>
    <trkpt lat="34.403305" lon="132.4658"/>
    <trkpt lat="34.403341" lon="132.465789"/>
    <trkpt lat="34.403376" lon="132.46578"/>
    <trkpt lat="34.403411" lon="132.46577"/>
    <trkpt lat="34.403446" lon="132.465761"/>
    <trkpt lat="34.403481" lon="132.465752"/>
    <trkpt lat="34.403517" lon="132.465744"/>
    <trkpt lat="34.403552" lon="132.465735"/>
    <trkpt lat="34.403588" lon="132.465726"/>
    <trkpt lat="34.403623" lon="132.465717"/>
    <trkpt lat="34.403658" lon="132.465709"/>
    <trkpt lat="34.403694" lon="132.4657"/>
    <trkpt lat="34.403729" lon="132.465691"/>
    <trkpt lat="34.403764" lon="132.465682"/>
    <trkpt lat="34.403799" lon="132.465673"/>
    <trkpt lat="34.403834" lon="132.465664"/>
    <trkpt lat="34.40387" lon="132.465655"/>
    <trkpt lat="34.403906" lon="132.465647"/>
    <trkpt lat="34.403941" lon="132.465638"/>
    <trkpt lat="34.403976" lon="132.46563"/>
    <trkpt lat="34.404011" lon="132.465622"/>
    <trkpt lat="34.404047" lon="132.465614"/>
    <trkpt lat="34.404082" lon="132.465605"/>
    <trkpt lat="34.404117" lon="132.465598"/>
    <trkpt lat="34.404154" lon="132.46559"/>
    <trkpt lat="34.404189" lon="132.465584"/>
    <trkpt lat="34.404225" lon="132.465578"/>
    <trkpt lat="34.404261" lon="132.465576"/>
    <trkpt lat="34.404297" lon="132.46558"/>
    <trkpt lat="34.404331" lon="132.465591"/>
    <trkpt lat="34.404362" lon="132.465614"/>
    <trkpt lat="34.404384" lon="132.465648"/>
    <trkpt lat="34.404398" lon="132.465688"/>
    <trkpt lat="34.404403" lon="132.465731"/>
    <trkpt lat="34.404403" lon="132.465774"/>
    <trkpt lat="34.404399" lon="132.465818"/>
    <trkpt lat="34.404392" lon="132.46586"/>
    <trkpt lat="34.404384" lon="132.465903"/>
    <trkpt lat="34.404374" lon="132.465945"/>
    <trkpt lat="34.404364" lon="132.465986"/>
    <trkpt lat="34.404353" lon="132.466028"/>
    <trkpt lat="34.404342" lon="132.466069"/>
    <trkpt lat="34.404329" lon="132.46611"/>
    <trkpt lat="34.404318" lon="132.466151"/>
    <trkpt lat="34.404305" lon="132.466192"/>
    <trkpt lat="34.404292" lon="132.466232"/>
    <trkpt lat="34.40428" lon="132.466274"/>
    <trkpt lat="34.404267" lon="132.466314"/>
    <trkpt lat="34.404254" lon="132.466355"/>
    <trkpt lat="34.404242" lon="132.466396"/>
    <trkpt lat="34.40423" lon="132.466437"/>
    <trkpt lat="34.404218" lon="132.466478"/>
    <trkpt lat="34.404206" lon="132.466519"/>
    <trkpt lat="34.404194" lon="132.46656"/>
    <trkpt lat="34.404181" lon="132.466601"/>
    <trkpt lat="34.404169" lon="132.466642"/>
    <trkpt lat="34.404157" lon="132.466683"/>
    <trkpt lat="34.404145" lon="132.466723"/>
    <trkpt lat="34.404132" lon="132.466765"/>
    <trkpt lat="34.404119" lon="132.466805"/>
    <trkpt lat="34.404108" lon="132.466846"/>
    <trkpt lat="34.404097" lon="132.466888"/>
    <trkpt lat="34.404087" lon="132.46693"/>
    <trkpt lat="34.404076" lon="132.466972"/>
    <trkpt lat="34.404067" lon="132.467014"/>
    <trkpt lat="34.404056" lon="132.467055"/>
    <trkpt lat="34.404045" lon="132.467097"/>
    <trkpt lat="34.404033" lon="132.467137"/>
    <trkpt lat="34.404018" lon="132.467177"/>
    <trkpt lat="34.404003" lon="132.467217"/>
    <trkpt lat="34.403987" lon="132.467256"/>
    <trkpt lat="34.403969" lon="132.467294"/>
    <trkpt lat="34.403951" lon="132.467331"/>
    <trkpt lat="34.403932" lon="132.467369"/>
    <trkpt lat="34.403913" lon="132.467406"/>
    <trkpt lat="34.403894" lon="132.467443"/>
    <trkpt lat="34.403875" lon="132.467479"/>
    <trkpt lat="34.403855" lon="132.467516"/>
    <trkpt lat="34.403836" lon="132.467553"/>
    <trkpt lat="34.403817" lon="132.46759"/>
    <trkpt lat="34.403798" lon="132.467627"/>
    <trkpt lat="34.403779" lon="132.467664"/>
    <trkpt lat="34.403761" lon="132.467701"/>
    <trkpt lat="34.403742" lon="132.467738"/>
    <trkpt lat="34.403723" lon="132.467775"/>
    <trkpt lat="34.403704" lon="132.467812"/>
    <trkpt lat="34.403685" lon="132.467849"/>
    <trkpt lat="34.403666" lon="132.467887"/>
    <trkpt lat="34.403648" lon="132.467924"/>
    <trkpt lat="34.403629" lon="132.467961"/>
    <trkpt lat="34.40361" lon="132.467998"/>
    <trkpt lat="34.403592" lon="132.468036"/>
    <trkpt lat="34.403573" lon="132.468073"/>
    <trkpt lat="34.403555" lon="132.468111"/>
    <trkpt lat="34.403537" lon="132.468148"/>
    <trkpt lat="34.403518" lon="132.468185"/>
    <trkpt lat="34.4035" lon="132.468224"/>
    <trkpt lat="34.403481" lon="132.468261"/>
    <trkpt lat="34.403463" lon="132.468299"/>
    <trkpt lat="34.403445" lon="132.468336"/>
    <trkpt lat="34.403427" lon="132.468374"/>
    <trkpt lat="34.40341" lon="132.468412"/>
    <trkpt lat="34.403394" lon="132.468451"/>
    <trkpt lat="34.403378" lon="132.46849"/>
    <trkpt lat="34.403365" lon="132.468531"/>
    <trkpt lat="34.403353" lon="132.468572"/>
    <trkpt lat="34.403344" lon="132.468614"/>
    <trkpt lat="34.403338" lon="132.468657"/>
    <trkpt lat="34.403334" lon="132.4687"/>
    <trkpt lat="34.403332" lon="132.468744"/>
    <trkpt lat="34.403333" lon="132.468788"/>
    <trkpt lat="34.403337" lon="132.468831"/>
    <trkpt lat="34.403341" lon="132.468874"/>
    <trkpt lat="34.403347" lon="132.468917"/>
    <trkpt lat="34.403354" lon="132.46896"/>
    <trkpt lat="34.40336" lon="132.469002"/>
    <trkpt lat="34.403367" lon="132.469046"/>
    <trkpt lat="34.403372" lon="132.469088"/>
    <trkpt lat="34.403378" lon="132.469132"/>
    <trkpt lat="34.403382" lon="132.469175"/>
    <trkpt lat="34.403387" lon="132.469218"/>
    <trkpt lat="34.403391" lon="132.469261"/>
    <trkpt lat="34.403396" lon="132.469305"/>
    <trkpt lat="34.4034" lon="132.469347"/>
    <trkpt lat="34.403404" lon="132.469391"/>
    <trkpt lat="34.403405" lon="132.469434"/>
    <trkpt lat="34.403406" lon="132.469478"/>
    <trkpt lat="34.403405" lon="132.469521"/>
    <trkpt lat="34.4034" lon="132.469565"/>
    <trkpt lat="34.403393" lon="132.469607"/>
    <trkpt lat="34.403384" lon="132.46965"/>
    <trkpt lat="34.403372" lon="132.469691"/>
    <trkpt lat="34.40336" lon="132.469731"/>
    <trkpt lat="34.403348" lon="132.469773"/>
    <trkpt lat="34.403335" lon="132.469813"/>
    <trkpt lat="34.403323" lon="132.469854"/>
    <trkpt lat="34.403311" lon="132.469896"/>
    <trkpt lat="34.4033" lon="132.469937"/>
    <trkpt lat="34.403288" lon="132.469979"/>
    <trkpt lat="34.403278" lon="132.47002"/>
    <trkpt lat="34.403268" lon="132.470061"/>
    <trkpt lat="34.403257" lon="132.470103"/>
    <trkpt lat="34.403245" lon="132.470144"/>
    <trkpt lat="34.403234" lon="132.470185"/>
    <trkpt lat="34.403222" lon="132.470227"/>
    <trkpt lat="34.403209" lon="132.470267"/>
    <trkpt lat="34.403195" lon="132.470307"/>
    <trkpt lat="34.40318" lon="132.470348"/>
    <trkpt lat="34.403165" lon="132.470387"/>
    <trkpt lat="34.403148" lon="132.470425"/>
    <trkpt lat="34.403131" lon="132.470463"/>
    <trkpt lat="34.403113" lon="132.470501"/>
    <trkpt lat="34.403095" lon="132.470539"/>
    <trkpt lat="34.403076" lon="132.470576"/>
    <trkpt lat="34.403058" lon="132.470614"/>
    <trkpt lat="34.40304" lon="132.470651"/>
    <trkpt lat="34.403022" lon="132.470689"/>
    <trkpt lat="34.403004" lon="132.470728"/>
    <trkpt lat="34.402987" lon="132.470766"/>
    <trkpt lat="34.402969" lon="132.470804"/>
    <trkpt lat="34.402951" lon="132.470841"/>
    <trkpt lat="34.402933" lon="132.470879"/>
    <trkpt lat="34.402914" lon="132.470916"/>
    <trkpt lat="34.402894" lon="132.470952"/>
    <trkpt lat="34.402874" lon="132.470988"/>
    <trkpt lat="34.402853" lon="132.471023"/>
    <trkpt lat="34.40283" lon="132.471057"/>
    <trkpt lat="34.402808" lon="132.471091"/>
    <trkpt lat="34.402784" lon="132.471125"/>
    <trkpt lat="34.402761" lon="132.471158"/>
    <trkpt lat="34.402737" lon="132.471189"/>
    <trkpt lat="34.402711" lon="132.471221"/>
    <trkpt lat="34.402687" lon="132.471252"/>
    <trkpt lat="34.402662" lon="132.471284"/>
    <trkpt lat="34.402637" lon="132.471315"/>
    <trkpt lat="34.402611" lon="132.471346"/>
    <trkpt lat="34.402585" lon="132.471376"/>
    <trkpt lat="34.402559" lon="132.471406"/>
    <trkpt lat="34.402533" lon="132.471436"/>
    <trkpt lat="34.402507" lon="132.471466"/>
    <trkpt lat="34.402481" lon="132.471496"/>
    <trkpt lat="34.402454" lon="132.471526"/>
    <trkpt lat="34.402428" lon="132.471555"/>
    <trkpt lat="34.4024" lon="132.471583"/>
    <trkpt lat="34.402373" lon="132.471613"/>
    <trkpt lat="34.402346" lon="132.471642"/>
    <trkpt lat="34.402319" lon="132.471671"/>
    <trkpt lat="34.402293" lon="132.4717"/>
    <trkpt lat="34.402266" lon="132.471729"/>
    <trkpt lat="34.402239" lon="132.471759"/>
    <trkpt lat="34.402212" lon="132.471787"/>
    <trkpt lat="34.402186" lon="132.471816"/>
    <trkpt lat="34.402159" lon="132.471846"/>
    <trkpt lat="34.402132" lon="132.471874"/>
    <trkpt lat="34.402105" lon="132.471903"/>
    <trkpt lat="34.402079" lon="132.471933"/>
    <trkpt lat="34.402052" lon="132.471962"/>
    <trkpt lat="34.402025" lon="132.47199"/>
    <trkpt lat="34.401998" lon="132.47202"/>
    <trkpt lat="34.401971" lon="132.472049"/>
    <trkpt lat="34.401944" lon="132.472079"/>
    <trkpt lat="34.401917" lon="132.472107"/>
    <trkpt lat="34.40189" lon="132.472136"/>
    <trkpt lat="34.401863" lon="132.472166"/>
    <trkpt lat="34.401836" lon="132.472194"/>
    <trkpt lat="34.40181" lon="132.472223"/>
    <trkpt lat="34.401783" lon="132.472252"/>
    <trkpt lat="34.401756" lon="132.472281"/>
    <trkpt lat="34.401729" lon="132.472309"/>
    <trkpt lat="34.401702" lon="132.472339"/>
    <trkpt lat="34.401675" lon="132.472368"/>
    <trkpt lat="34.401648" lon="132.472396"/>
    <trkpt lat="34.401621" lon="132.472426"/>
    <trkpt lat="34.401594" lon="132.472454"/>
    <trkpt lat="34.401567" lon="132.472483"/>
    <trkpt lat="34.40154" lon="132.472512"/>
    <trkpt lat="34.401513" lon="132.47254"/>
    <trkpt lat="34.401486" lon="132.47257"/>
    <trkpt lat="34.401459" lon="132.472599"/>
    <trkpt lat="34.401432" lon="132.472627"/>
    <trkpt lat="34.401405" lon="132.472657"/>
    <trkpt lat="34.401378" lon="132.472685"/>
    <trkpt lat="34.401351" lon="132.472714"/>
    <trkpt lat="34.401324" lon="132.472744"/>
    <trkpt lat="34.401298" lon="132.472773"/>
    <trkpt lat="34.401271" lon="132.472803"/>
    <trkpt lat="34.401245" lon="132.472832"/>
    <trkpt lat="34.401219" lon="132.472861"/>
    <trkpt lat="34.401193" lon="132.472892"/>
    <trkpt lat="34.401167" lon="132.472922"/>
    <trkpt lat="34.40114" lon="132.472952"/>
    <trkpt lat="34.401114" lon="132.472982"/>
    <trkpt lat="34.401089" lon="132.473013"/>
    <trkpt lat="34.401063" lon="132.473044"/>
    <trkpt lat="34.401038" lon="132.473075"/>
    <trkpt lat="34.401012" lon="132.473106"/>
    <trkpt lat="34.400988" lon="132.473137"/>
    <trkpt lat="34.400963" lon="132.473168"/>
    <trkpt lat="34.400939" lon="132.4732"/>
    <trkpt lat="34.400913" lon="132.473233"/>
    <trkpt lat="34.400889" lon="132.473264"/>
    <trkpt lat="34.400866" lon="132.473297"/>
    <trkpt lat="34.400841" lon="132.473329"/>
    <trkpt lat="34.400818" lon="132.473362"/>
    <trkpt lat="34.400794" lon="132.473396"/>
    <trkpt lat="34.400771" lon="132.473429"/>
    <trkpt lat="34.400748" lon="132.473462"/>
    <trkpt lat="34.400726" lon="132.473496"/>
    <trkpt lat="34.400702" lon="132.47353"/>
    <trkpt lat="34.400681" lon="132.473565"/>
    <trkpt lat="34.400658" lon="132.473598"/>
    <trkpt lat="34.400636" lon="132.473633"/>
    <trkpt lat="34.400614" lon="132.473667"/>
    <trkpt lat="34.400592" lon="132.473702"/>
    <trkpt lat="34.400571" lon="132.473737"/>
    <trkpt lat="34.400549" lon="132.473771"/>
    <trkpt lat="34.400528" lon="132.473807"/>
    <trkpt lat="34.400507" lon="132.473842"/>
    <trkpt lat="34.400486" lon="132.473878"/>
    <trkpt lat="34.400465" lon="132.473914"/>
    <trkpt lat="34.400445" lon="132.47395"/>
    <trkpt lat="34.400425" lon="132.473986"/>
    <trkpt lat="34.400405" lon="132.474022"/>
    <trkpt lat="34.400384" lon="132.474058"/>
    <trkpt lat="34.400364" lon="132.474094"/>
    <trkpt lat="34.400344" lon="132.47413"/>
    <trkpt lat="34.400322" lon="132.474165"/>
    <trkpt lat="34.400299" lon="132.474197"/>
    <trkpt lat="34.400274" lon="132.47423"/>
    <trkpt lat="34.400249" lon="132.474261"/>
    <trkpt lat="34.400224" lon="132.474292"/>
    <trkpt lat="34.400198" lon="132.474322"/>
    <trkpt lat="34.400172" lon="132.474352"/>
    <trkpt lat="34.400145" lon="132.47438"/>
    <trkpt lat="34.400117" lon="132.474408"/>
    <trkpt lat="34.40009" lon="132.474437"/>
    <trkpt lat="34.400062" lon="132.474465"/>
    <trkpt lat="34.400034" lon="132.474492"/>
    <trkpt lat="34.400006" lon="132.474519"/>
    <trkpt lat="34.399977" lon="132.474547"/>
    <trkpt lat="34.399949" lon="132.474573"/>
    <trkpt lat="34.39992" lon="132.4746"/>
    <trkpt lat="34.399891" lon="132.474626"/>
    <trkpt lat="34.399862" lon="132.474651"/>
    <trkpt lat="34.399834" lon="132.474677"/>
    <trkpt lat="34.399804" lon="132.474703"/>
    <trkpt lat="34.399775" lon="132.474728"/>
    <trkpt lat="34.399745" lon="132.474753"/>
    <trkpt lat="34.399716" lon="132.474779"/>
    <trkpt lat="34.399687" lon="132.474804"/>
    <trkpt lat="34.399657" lon="132.474829"/>
    <trkpt lat="34.399626" lon="132.474853"/>
    <trkpt lat="34.399597" lon="132.474877"/>
    <trkpt lat="34.399567" lon="132.4749"/>
    <trkpt lat="34.399536" lon="132.474924"/>
    <trkpt lat="34.399505" lon="132.474947"/>
    <trkpt lat="34.399475" lon="132.47497"/>
    <trkpt lat="34.399444" lon="132.474993"/>
    <trkpt lat="34.399414" lon="132.475016"/>
    <trkpt lat="34.399382" lon="132.475038"/>
    <trkpt lat="34.399351" lon="132.475059"/>
    <trkpt lat="34.399319" lon="132.47508"/>
    <trkpt lat="34.399287" lon="132.4751"/>
    <trkpt lat="34.399255" lon="132.475119"/>
    <trkpt lat="34.399222" lon="132.475138"/>
    <trkpt lat="34.399189" lon="132.475155"/>
    <trkpt lat="34.399156" lon="132.47517"/>
    <trkpt lat="34.399121" lon="132.475182"/>
    <trkpt lat="34.399085" lon="132.475192"/>
    <trkpt lat="34.39905" lon="132.475198"/>
    <trkpt lat="34.399014" lon="132.4752"/>
    <trkpt lat="34.398978" lon="132.4752"/>
    <trkpt lat="34.398942" lon="132.475201"/>
    <trkpt lat="34.398906" lon="132.475201"/>
    <trkpt lat="34.39887" lon="132.475202"/>
    <trkpt lat="34.398834" lon="132.475202"/>
    <trkpt lat="34.398798" lon="132.475203"/>
    <trkpt lat="34.398762" lon="132.475203"/>
    <trkpt lat="34.398726" lon="132.475204"/>
    <trkpt lat="34.39869" lon="132.475205"/>
    <trkpt lat="34.398654" lon="132.475206"/>
    <trkpt lat="34.398618" lon="132.475206"/>
    <trkpt lat="34.398582" lon="132.475207"/>
    <trkpt lat="34.398546" lon="132.475207"/>
    <trkpt lat="34.39851" lon="132.475209"/>
    <trkpt lat="34.398474" lon="132.475209"/>
    <trkpt lat="34.398437" lon="132.475207"/>
    <trkpt lat="34.398401" lon="132.475207"/>
    <trkpt lat="34.398365" lon="132.475207"/>
    <trkpt lat="34.398329" lon="132.475206"/>
    <trkpt lat="34.398293" lon="132.475206"/>
    <trkpt lat="34.398257" lon="132.475205"/>
    <trkpt lat="34.398221" lon="132.475204"/>
    <trkpt lat="34.398185" lon="132.475203"/>
    <trkpt lat="34.398149" lon="132.475203"/>
    <trkpt lat="34.398113" lon="132.475202"/>
    <trkpt lat="34.398077" lon="132.475201"/>
    <trkpt lat="34.398041" lon="132.475199"/>
    <trkpt lat="34.398005" lon="132.475198"/>
    <trkpt lat="34.397969" lon="132.475195"/>
    <trkpt lat="34.397933" lon="132.475193"/>
    <trkpt lat="34.397897" lon="132.475191"/>
    <trkpt lat="34.397894" lon="132.475191"/>
  </trkseg></trk>
</gpx>
